<?xml version="1.0" encoding="UTF-8"?>
<kml xmlns="http://www.opengis.net/kml/2.2">
<Document>
<name>GRADE DEMO CUPERTINO</name>
<Placemark>
<name>1</name>
<ExtendedData><Data name="numero"><value>1</value></Data></ExtendedData>
<Point><coordinates>-122.0086711,37.3314061,0</coordinates></Point>
</Placemark>
<Placemark>
<name>2</name>
<ExtendedData><Data name="numero"><value>2</value></Data></ExtendedData>
<Point><coordinates>-122.0083321,37.3314061,0</coordinates></Point>
</Placemark>
<Placemark>
<name>3</name>
<ExtendedData><Data name="numero"><value>3</value></Data></ExtendedData>
<Point><coordinates>-122.0079932,37.3316756,0</coordinates></Point>
</Placemark>
<Placemark>
<name>4</name>
<ExtendedData><Data name="numero"><value>4</value></Data></ExtendedData>
<Point><coordinates>-122.0083321,37.3316756,0</coordinates></Point>
</Placemark>
<Placemark>
<name>5</name>
<ExtendedData><Data name="numero"><value>5</value></Data></ExtendedData>
<Point><coordinates>-122.0086711,37.3316756,0</coordinates></Point>
</Placemark>
<Placemark>
<name>6</name>
<ExtendedData><Data name="numero"><value>6</value></Data></ExtendedData>
<Point><coordinates>-122.0090100,37.3316756,0</coordinates></Point>
</Placemark>
<Placemark>
<name>7</name>
<ExtendedData><Data name="numero"><value>7</value></Data></ExtendedData>
<Point><coordinates>-122.0093489,37.3316756,0</coordinates></Point>
</Placemark>
<Placemark>
<name>8</name>
<ExtendedData><Data name="numero"><value>8</value></Data></ExtendedData>
<Point><coordinates>-122.0096879,37.3316756,0</coordinates></Point>
</Placemark>
<Placemark>
<name>9</name>
<ExtendedData><Data name="numero"><value>9</value></Data></ExtendedData>
<Point><coordinates>-122.0100268,37.3316756,0</coordinates></Point>
</Placemark>
<Placemark>
<name>10</name>
<ExtendedData><Data name="numero"><value>10</value></Data></ExtendedData>
<Point><coordinates>-122.0103658,37.3316756,0</coordinates></Point>
</Placemark>
<Placemark>
<name>11</name>
<ExtendedData><Data name="numero"><value>11</value></Data></ExtendedData>
<Point><coordinates>-122.0117215,37.3319451,0</coordinates></Point>
</Placemark>
<Placemark>
<name>12</name>
<ExtendedData><Data name="numero"><value>12</value></Data></ExtendedData>
<Point><coordinates>-122.0113826,37.3319451,0</coordinates></Point>
</Placemark>
<Placemark>
<name>13</name>
<ExtendedData><Data name="numero"><value>13</value></Data></ExtendedData>
<Point><coordinates>-122.0110436,37.3319451,0</coordinates></Point>
</Placemark>
<Placemark>
<name>14</name>
<ExtendedData><Data name="numero"><value>14</value></Data></ExtendedData>
<Point><coordinates>-122.0107047,37.3319451,0</coordinates></Point>
</Placemark>
<Placemark>
<name>15</name>
<ExtendedData><Data name="numero"><value>15</value></Data></ExtendedData>
<Point><coordinates>-122.0103658,37.3319451,0</coordinates></Point>
</Placemark>
<Placemark>
<name>16</name>
<ExtendedData><Data name="numero"><value>16</value></Data></ExtendedData>
<Point><coordinates>-122.0100268,37.3319451,0</coordinates></Point>
</Placemark>
<Placemark>
<name>17</name>
<ExtendedData><Data name="numero"><value>17</value></Data></ExtendedData>
<Point><coordinates>-122.0096879,37.3319451,0</coordinates></Point>
</Placemark>
<Placemark>
<name>18</name>
<ExtendedData><Data name="numero"><value>18</value></Data></ExtendedData>
<Point><coordinates>-122.0093489,37.3319451,0</coordinates></Point>
</Placemark>
<Placemark>
<name>19</name>
<ExtendedData><Data name="numero"><value>19</value></Data></ExtendedData>
<Point><coordinates>-122.0090100,37.3319451,0</coordinates></Point>
</Placemark>
<Placemark>
<name>20</name>
<ExtendedData><Data name="numero"><value>20</value></Data></ExtendedData>
<Point><coordinates>-122.0086711,37.3319451,0</coordinates></Point>
</Placemark>
<Placemark>
<name>21</name>
<ExtendedData><Data name="numero"><value>21</value></Data></ExtendedData>
<Point><coordinates>-122.0083321,37.3319451,0</coordinates></Point>
</Placemark>
<Placemark>
<name>22</name>
<ExtendedData><Data name="numero"><value>22</value></Data></ExtendedData>
<Point><coordinates>-122.0079932,37.3319451,0</coordinates></Point>
</Placemark>
<Placemark>
<name>23</name>
<ExtendedData><Data name="numero"><value>23</value></Data></ExtendedData>
<Point><coordinates>-122.0076542,37.3319451,0</coordinates></Point>
</Placemark>
<Placemark>
<name>24</name>
<ExtendedData><Data name="numero"><value>24</value></Data></ExtendedData>
<Point><coordinates>-122.0073153,37.3319451,0</coordinates></Point>
</Placemark>
<Placemark>
<name>25</name>
<ExtendedData><Data name="numero"><value>25</value></Data></ExtendedData>
<Point><coordinates>-122.0069764,37.3322146,0</coordinates></Point>
</Placemark>
<Placemark>
<name>26</name>
<ExtendedData><Data name="numero"><value>26</value></Data></ExtendedData>
<Point><coordinates>-122.0073153,37.3322146,0</coordinates></Point>
</Placemark>
<Placemark>
<name>27</name>
<ExtendedData><Data name="numero"><value>27</value></Data></ExtendedData>
<Point><coordinates>-122.0076542,37.3322146,0</coordinates></Point>
</Placemark>
<Placemark>
<name>28</name>
<ExtendedData><Data name="numero"><value>28</value></Data></ExtendedData>
<Point><coordinates>-122.0079932,37.3322146,0</coordinates></Point>
</Placemark>
<Placemark>
<name>29</name>
<ExtendedData><Data name="numero"><value>29</value></Data></ExtendedData>
<Point><coordinates>-122.0083321,37.3322146,0</coordinates></Point>
</Placemark>
<Placemark>
<name>30</name>
<ExtendedData><Data name="numero"><value>30</value></Data></ExtendedData>
<Point><coordinates>-122.0086711,37.3322146,0</coordinates></Point>
</Placemark>
<Placemark>
<name>31</name>
<ExtendedData><Data name="numero"><value>31</value></Data></ExtendedData>
<Point><coordinates>-122.0090100,37.3322146,0</coordinates></Point>
</Placemark>
<Placemark>
<name>32</name>
<ExtendedData><Data name="numero"><value>32</value></Data></ExtendedData>
<Point><coordinates>-122.0093489,37.3322146,0</coordinates></Point>
</Placemark>
<Placemark>
<name>33</name>
<ExtendedData><Data name="numero"><value>33</value></Data></ExtendedData>
<Point><coordinates>-122.0096879,37.3322146,0</coordinates></Point>
</Placemark>
<Placemark>
<name>34</name>
<ExtendedData><Data name="numero"><value>34</value></Data></ExtendedData>
<Point><coordinates>-122.0100268,37.3322146,0</coordinates></Point>
</Placemark>
<Placemark>
<name>35</name>
<ExtendedData><Data name="numero"><value>35</value></Data></ExtendedData>
<Point><coordinates>-122.0103658,37.3322146,0</coordinates></Point>
</Placemark>
<Placemark>
<name>36</name>
<ExtendedData><Data name="numero"><value>36</value></Data></ExtendedData>
<Point><coordinates>-122.0107047,37.3322146,0</coordinates></Point>
</Placemark>
<Placemark>
<name>37</name>
<ExtendedData><Data name="numero"><value>37</value></Data></ExtendedData>
<Point><coordinates>-122.0110436,37.3322146,0</coordinates></Point>
</Placemark>
<Placemark>
<name>38</name>
<ExtendedData><Data name="numero"><value>38</value></Data></ExtendedData>
<Point><coordinates>-122.0113826,37.3322146,0</coordinates></Point>
</Placemark>
<Placemark>
<name>39</name>
<ExtendedData><Data name="numero"><value>39</value></Data></ExtendedData>
<Point><coordinates>-122.0117215,37.3322146,0</coordinates></Point>
</Placemark>
<Placemark>
<name>40</name>
<ExtendedData><Data name="numero"><value>40</value></Data></ExtendedData>
<Point><coordinates>-122.0120605,37.3322146,0</coordinates></Point>
</Placemark>
<Placemark>
<name>41</name>
<ExtendedData><Data name="numero"><value>41</value></Data></ExtendedData>
<Point><coordinates>-122.0123994,37.3322146,0</coordinates></Point>
</Placemark>
<Placemark>
<name>42</name>
<ExtendedData><Data name="numero"><value>42</value></Data></ExtendedData>
<Point><coordinates>-122.0123994,37.3324841,0</coordinates></Point>
</Placemark>
<Placemark>
<name>43</name>
<ExtendedData><Data name="numero"><value>43</value></Data></ExtendedData>
<Point><coordinates>-122.0120605,37.3324841,0</coordinates></Point>
</Placemark>
<Placemark>
<name>44</name>
<ExtendedData><Data name="numero"><value>44</value></Data></ExtendedData>
<Point><coordinates>-122.0117215,37.3324841,0</coordinates></Point>
</Placemark>
<Placemark>
<name>45</name>
<ExtendedData><Data name="numero"><value>45</value></Data></ExtendedData>
<Point><coordinates>-122.0113826,37.3324841,0</coordinates></Point>
</Placemark>
<Placemark>
<name>46</name>
<ExtendedData><Data name="numero"><value>46</value></Data></ExtendedData>
<Point><coordinates>-122.0110436,37.3324841,0</coordinates></Point>
</Placemark>
<Placemark>
<name>47</name>
<ExtendedData><Data name="numero"><value>47</value></Data></ExtendedData>
<Point><coordinates>-122.0107047,37.3324841,0</coordinates></Point>
</Placemark>
<Placemark>
<name>48</name>
<ExtendedData><Data name="numero"><value>48</value></Data></ExtendedData>
<Point><coordinates>-122.0103658,37.3324841,0</coordinates></Point>
</Placemark>
<Placemark>
<name>49</name>
<ExtendedData><Data name="numero"><value>49</value></Data></ExtendedData>
<Point><coordinates>-122.0100268,37.3324841,0</coordinates></Point>
</Placemark>
<Placemark>
<name>50</name>
<ExtendedData><Data name="numero"><value>50</value></Data></ExtendedData>
<Point><coordinates>-122.0096879,37.3324841,0</coordinates></Point>
</Placemark>
<Placemark>
<name>51</name>
<ExtendedData><Data name="numero"><value>51</value></Data></ExtendedData>
<Point><coordinates>-122.0093489,37.3324841,0</coordinates></Point>
</Placemark>
<Placemark>
<name>52</name>
<ExtendedData><Data name="numero"><value>52</value></Data></ExtendedData>
<Point><coordinates>-122.0090100,37.3324841,0</coordinates></Point>
</Placemark>
<Placemark>
<name>53</name>
<ExtendedData><Data name="numero"><value>53</value></Data></ExtendedData>
<Point><coordinates>-122.0086711,37.3324841,0</coordinates></Point>
</Placemark>
<Placemark>
<name>54</name>
<ExtendedData><Data name="numero"><value>54</value></Data></ExtendedData>
<Point><coordinates>-122.0083321,37.3324841,0</coordinates></Point>
</Placemark>
<Placemark>
<name>55</name>
<ExtendedData><Data name="numero"><value>55</value></Data></ExtendedData>
<Point><coordinates>-122.0079932,37.3324841,0</coordinates></Point>
</Placemark>
<Placemark>
<name>56</name>
<ExtendedData><Data name="numero"><value>56</value></Data></ExtendedData>
<Point><coordinates>-122.0076542,37.3324841,0</coordinates></Point>
</Placemark>
<Placemark>
<name>57</name>
<ExtendedData><Data name="numero"><value>57</value></Data></ExtendedData>
<Point><coordinates>-122.0073153,37.3324841,0</coordinates></Point>
</Placemark>
<Placemark>
<name>58</name>
<ExtendedData><Data name="numero"><value>58</value></Data></ExtendedData>
<Point><coordinates>-122.0069764,37.3324841,0</coordinates></Point>
</Placemark>
<Placemark>
<name>59</name>
<ExtendedData><Data name="numero"><value>59</value></Data></ExtendedData>
<Point><coordinates>-122.0066374,37.3324841,0</coordinates></Point>
</Placemark>
<Placemark>
<name>60</name>
<ExtendedData><Data name="numero"><value>60</value></Data></ExtendedData>
<Point><coordinates>-122.0062985,37.3324841,0</coordinates></Point>
</Placemark>
<Placemark>
<name>61</name>
<ExtendedData><Data name="numero"><value>61</value></Data></ExtendedData>
<Point><coordinates>-122.0059595,37.3327535,0</coordinates></Point>
</Placemark>
<Placemark>
<name>62</name>
<ExtendedData><Data name="numero"><value>62</value></Data></ExtendedData>
<Point><coordinates>-122.0062985,37.3327535,0</coordinates></Point>
</Placemark>
<Placemark>
<name>63</name>
<ExtendedData><Data name="numero"><value>63</value></Data></ExtendedData>
<Point><coordinates>-122.0066374,37.3327535,0</coordinates></Point>
</Placemark>
<Placemark>
<name>64</name>
<ExtendedData><Data name="numero"><value>64</value></Data></ExtendedData>
<Point><coordinates>-122.0069764,37.3327535,0</coordinates></Point>
</Placemark>
<Placemark>
<name>65</name>
<ExtendedData><Data name="numero"><value>65</value></Data></ExtendedData>
<Point><coordinates>-122.0073153,37.3327535,0</coordinates></Point>
</Placemark>
<Placemark>
<name>66</name>
<ExtendedData><Data name="numero"><value>66</value></Data></ExtendedData>
<Point><coordinates>-122.0076542,37.3327535,0</coordinates></Point>
</Placemark>
<Placemark>
<name>67</name>
<ExtendedData><Data name="numero"><value>67</value></Data></ExtendedData>
<Point><coordinates>-122.0079932,37.3327535,0</coordinates></Point>
</Placemark>
<Placemark>
<name>68</name>
<ExtendedData><Data name="numero"><value>68</value></Data></ExtendedData>
<Point><coordinates>-122.0083321,37.3327535,0</coordinates></Point>
</Placemark>
<Placemark>
<name>69</name>
<ExtendedData><Data name="numero"><value>69</value></Data></ExtendedData>
<Point><coordinates>-122.0086711,37.3327535,0</coordinates></Point>
</Placemark>
<Placemark>
<name>70</name>
<ExtendedData><Data name="numero"><value>70</value></Data></ExtendedData>
<Point><coordinates>-122.0090100,37.3327535,0</coordinates></Point>
</Placemark>
<Placemark>
<name>71</name>
<ExtendedData><Data name="numero"><value>71</value></Data></ExtendedData>
<Point><coordinates>-122.0093489,37.3327535,0</coordinates></Point>
</Placemark>
<Placemark>
<name>72</name>
<ExtendedData><Data name="numero"><value>72</value></Data></ExtendedData>
<Point><coordinates>-122.0096879,37.3327535,0</coordinates></Point>
</Placemark>
<Placemark>
<name>73</name>
<ExtendedData><Data name="numero"><value>73</value></Data></ExtendedData>
<Point><coordinates>-122.0100268,37.3327535,0</coordinates></Point>
</Placemark>
<Placemark>
<name>74</name>
<ExtendedData><Data name="numero"><value>74</value></Data></ExtendedData>
<Point><coordinates>-122.0103658,37.3327535,0</coordinates></Point>
</Placemark>
<Placemark>
<name>75</name>
<ExtendedData><Data name="numero"><value>75</value></Data></ExtendedData>
<Point><coordinates>-122.0107047,37.3327535,0</coordinates></Point>
</Placemark>
<Placemark>
<name>76</name>
<ExtendedData><Data name="numero"><value>76</value></Data></ExtendedData>
<Point><coordinates>-122.0110436,37.3327535,0</coordinates></Point>
</Placemark>
<Placemark>
<name>77</name>
<ExtendedData><Data name="numero"><value>77</value></Data></ExtendedData>
<Point><coordinates>-122.0113826,37.3327535,0</coordinates></Point>
</Placemark>
<Placemark>
<name>78</name>
<ExtendedData><Data name="numero"><value>78</value></Data></ExtendedData>
<Point><coordinates>-122.0117215,37.3327535,0</coordinates></Point>
</Placemark>
<Placemark>
<name>79</name>
<ExtendedData><Data name="numero"><value>79</value></Data></ExtendedData>
<Point><coordinates>-122.0120605,37.3327535,0</coordinates></Point>
</Placemark>
<Placemark>
<name>80</name>
<ExtendedData><Data name="numero"><value>80</value></Data></ExtendedData>
<Point><coordinates>-122.0123994,37.3327535,0</coordinates></Point>
</Placemark>
<Placemark>
<name>81</name>
<ExtendedData><Data name="numero"><value>81</value></Data></ExtendedData>
<Point><coordinates>-122.0127383,37.3330230,0</coordinates></Point>
</Placemark>
<Placemark>
<name>82</name>
<ExtendedData><Data name="numero"><value>82</value></Data></ExtendedData>
<Point><coordinates>-122.0123994,37.3330230,0</coordinates></Point>
</Placemark>
<Placemark>
<name>83</name>
<ExtendedData><Data name="numero"><value>83</value></Data></ExtendedData>
<Point><coordinates>-122.0120605,37.3330230,0</coordinates></Point>
</Placemark>
<Placemark>
<name>84</name>
<ExtendedData><Data name="numero"><value>84</value></Data></ExtendedData>
<Point><coordinates>-122.0117215,37.3330230,0</coordinates></Point>
</Placemark>
<Placemark>
<name>85</name>
<ExtendedData><Data name="numero"><value>85</value></Data></ExtendedData>
<Point><coordinates>-122.0113826,37.3330230,0</coordinates></Point>
</Placemark>
<Placemark>
<name>86</name>
<ExtendedData><Data name="numero"><value>86</value></Data></ExtendedData>
<Point><coordinates>-122.0110436,37.3330230,0</coordinates></Point>
</Placemark>
<Placemark>
<name>87</name>
<ExtendedData><Data name="numero"><value>87</value></Data></ExtendedData>
<Point><coordinates>-122.0107047,37.3330230,0</coordinates></Point>
</Placemark>
<Placemark>
<name>88</name>
<ExtendedData><Data name="numero"><value>88</value></Data></ExtendedData>
<Point><coordinates>-122.0103658,37.3330230,0</coordinates></Point>
</Placemark>
<Placemark>
<name>89</name>
<ExtendedData><Data name="numero"><value>89</value></Data></ExtendedData>
<Point><coordinates>-122.0100268,37.3330230,0</coordinates></Point>
</Placemark>
<Placemark>
<name>90</name>
<ExtendedData><Data name="numero"><value>90</value></Data></ExtendedData>
<Point><coordinates>-122.0096879,37.3330230,0</coordinates></Point>
</Placemark>
<Placemark>
<name>91</name>
<ExtendedData><Data name="numero"><value>91</value></Data></ExtendedData>
<Point><coordinates>-122.0093489,37.3330230,0</coordinates></Point>
</Placemark>
<Placemark>
<name>92</name>
<ExtendedData><Data name="numero"><value>92</value></Data></ExtendedData>
<Point><coordinates>-122.0090100,37.3330230,0</coordinates></Point>
</Placemark>
<Placemark>
<name>93</name>
<ExtendedData><Data name="numero"><value>93</value></Data></ExtendedData>
<Point><coordinates>-122.0086711,37.3330230,0</coordinates></Point>
</Placemark>
<Placemark>
<name>94</name>
<ExtendedData><Data name="numero"><value>94</value></Data></ExtendedData>
<Point><coordinates>-122.0083321,37.3330230,0</coordinates></Point>
</Placemark>
<Placemark>
<name>95</name>
<ExtendedData><Data name="numero"><value>95</value></Data></ExtendedData>
<Point><coordinates>-122.0079932,37.3330230,0</coordinates></Point>
</Placemark>
<Placemark>
<name>96</name>
<ExtendedData><Data name="numero"><value>96</value></Data></ExtendedData>
<Point><coordinates>-122.0076542,37.3330230,0</coordinates></Point>
</Placemark>
<Placemark>
<name>97</name>
<ExtendedData><Data name="numero"><value>97</value></Data></ExtendedData>
<Point><coordinates>-122.0073153,37.3330230,0</coordinates></Point>
</Placemark>
<Placemark>
<name>98</name>
<ExtendedData><Data name="numero"><value>98</value></Data></ExtendedData>
<Point><coordinates>-122.0069764,37.3330230,0</coordinates></Point>
</Placemark>
<Placemark>
<name>99</name>
<ExtendedData><Data name="numero"><value>99</value></Data></ExtendedData>
<Point><coordinates>-122.0066374,37.3330230,0</coordinates></Point>
</Placemark>
<Placemark>
<name>100</name>
<ExtendedData><Data name="numero"><value>100</value></Data></ExtendedData>
<Point><coordinates>-122.0062985,37.3330230,0</coordinates></Point>
</Placemark>
<Placemark>
<name>101</name>
<ExtendedData><Data name="numero"><value>101</value></Data></ExtendedData>
<Point><coordinates>-122.0059595,37.3330230,0</coordinates></Point>
</Placemark>
<Placemark>
<name>102</name>
<ExtendedData><Data name="numero"><value>102</value></Data></ExtendedData>
<Point><coordinates>-122.0056206,37.3330230,0</coordinates></Point>
</Placemark>
<Placemark>
<name>103</name>
<ExtendedData><Data name="numero"><value>103</value></Data></ExtendedData>
<Point><coordinates>-122.0052817,37.3330230,0</coordinates></Point>
</Placemark>
<Placemark>
<name>104</name>
<ExtendedData><Data name="numero"><value>104</value></Data></ExtendedData>
<Point><coordinates>-122.0052817,37.3332925,0</coordinates></Point>
</Placemark>
<Placemark>
<name>105</name>
<ExtendedData><Data name="numero"><value>105</value></Data></ExtendedData>
<Point><coordinates>-122.0056206,37.3332925,0</coordinates></Point>
</Placemark>
<Placemark>
<name>106</name>
<ExtendedData><Data name="numero"><value>106</value></Data></ExtendedData>
<Point><coordinates>-122.0059595,37.3332925,0</coordinates></Point>
</Placemark>
<Placemark>
<name>107</name>
<ExtendedData><Data name="numero"><value>107</value></Data></ExtendedData>
<Point><coordinates>-122.0062985,37.3332925,0</coordinates></Point>
</Placemark>
<Placemark>
<name>108</name>
<ExtendedData><Data name="numero"><value>108</value></Data></ExtendedData>
<Point><coordinates>-122.0066374,37.3332925,0</coordinates></Point>
</Placemark>
<Placemark>
<name>109</name>
<ExtendedData><Data name="numero"><value>109</value></Data></ExtendedData>
<Point><coordinates>-122.0069764,37.3332925,0</coordinates></Point>
</Placemark>
<Placemark>
<name>110</name>
<ExtendedData><Data name="numero"><value>110</value></Data></ExtendedData>
<Point><coordinates>-122.0073153,37.3332925,0</coordinates></Point>
</Placemark>
<Placemark>
<name>111</name>
<ExtendedData><Data name="numero"><value>111</value></Data></ExtendedData>
<Point><coordinates>-122.0076542,37.3332925,0</coordinates></Point>
</Placemark>
<Placemark>
<name>112</name>
<ExtendedData><Data name="numero"><value>112</value></Data></ExtendedData>
<Point><coordinates>-122.0079932,37.3332925,0</coordinates></Point>
</Placemark>
<Placemark>
<name>113</name>
<ExtendedData><Data name="numero"><value>113</value></Data></ExtendedData>
<Point><coordinates>-122.0083321,37.3332925,0</coordinates></Point>
</Placemark>
<Placemark>
<name>114</name>
<ExtendedData><Data name="numero"><value>114</value></Data></ExtendedData>
<Point><coordinates>-122.0086711,37.3332925,0</coordinates></Point>
</Placemark>
<Placemark>
<name>115</name>
<ExtendedData><Data name="numero"><value>115</value></Data></ExtendedData>
<Point><coordinates>-122.0090100,37.3332925,0</coordinates></Point>
</Placemark>
<Placemark>
<name>116</name>
<ExtendedData><Data name="numero"><value>116</value></Data></ExtendedData>
<Point><coordinates>-122.0093489,37.3332925,0</coordinates></Point>
</Placemark>
<Placemark>
<name>117</name>
<ExtendedData><Data name="numero"><value>117</value></Data></ExtendedData>
<Point><coordinates>-122.0096879,37.3332925,0</coordinates></Point>
</Placemark>
<Placemark>
<name>118</name>
<ExtendedData><Data name="numero"><value>118</value></Data></ExtendedData>
<Point><coordinates>-122.0100268,37.3332925,0</coordinates></Point>
</Placemark>
<Placemark>
<name>119</name>
<ExtendedData><Data name="numero"><value>119</value></Data></ExtendedData>
<Point><coordinates>-122.0103658,37.3332925,0</coordinates></Point>
</Placemark>
<Placemark>
<name>120</name>
<ExtendedData><Data name="numero"><value>120</value></Data></ExtendedData>
<Point><coordinates>-122.0107047,37.3332925,0</coordinates></Point>
</Placemark>
<Placemark>
<name>121</name>
<ExtendedData><Data name="numero"><value>121</value></Data></ExtendedData>
<Point><coordinates>-122.0110436,37.3332925,0</coordinates></Point>
</Placemark>
<Placemark>
<name>122</name>
<ExtendedData><Data name="numero"><value>122</value></Data></ExtendedData>
<Point><coordinates>-122.0113826,37.3332925,0</coordinates></Point>
</Placemark>
<Placemark>
<name>123</name>
<ExtendedData><Data name="numero"><value>123</value></Data></ExtendedData>
<Point><coordinates>-122.0117215,37.3332925,0</coordinates></Point>
</Placemark>
<Placemark>
<name>124</name>
<ExtendedData><Data name="numero"><value>124</value></Data></ExtendedData>
<Point><coordinates>-122.0120605,37.3332925,0</coordinates></Point>
</Placemark>
<Placemark>
<name>125</name>
<ExtendedData><Data name="numero"><value>125</value></Data></ExtendedData>
<Point><coordinates>-122.0123994,37.3332925,0</coordinates></Point>
</Placemark>
<Placemark>
<name>126</name>
<ExtendedData><Data name="numero"><value>126</value></Data></ExtendedData>
<Point><coordinates>-122.0127383,37.3332925,0</coordinates></Point>
</Placemark>
<Placemark>
<name>127</name>
<ExtendedData><Data name="numero"><value>127</value></Data></ExtendedData>
<Point><coordinates>-122.0127383,37.3335620,0</coordinates></Point>
</Placemark>
<Placemark>
<name>128</name>
<ExtendedData><Data name="numero"><value>128</value></Data></ExtendedData>
<Point><coordinates>-122.0123994,37.3335620,0</coordinates></Point>
</Placemark>
<Placemark>
<name>129</name>
<ExtendedData><Data name="numero"><value>129</value></Data></ExtendedData>
<Point><coordinates>-122.0120605,37.3335620,0</coordinates></Point>
</Placemark>
<Placemark>
<name>130</name>
<ExtendedData><Data name="numero"><value>130</value></Data></ExtendedData>
<Point><coordinates>-122.0117215,37.3335620,0</coordinates></Point>
</Placemark>
<Placemark>
<name>131</name>
<ExtendedData><Data name="numero"><value>131</value></Data></ExtendedData>
<Point><coordinates>-122.0113826,37.3335620,0</coordinates></Point>
</Placemark>
<Placemark>
<name>132</name>
<ExtendedData><Data name="numero"><value>132</value></Data></ExtendedData>
<Point><coordinates>-122.0110436,37.3335620,0</coordinates></Point>
</Placemark>
<Placemark>
<name>133</name>
<ExtendedData><Data name="numero"><value>133</value></Data></ExtendedData>
<Point><coordinates>-122.0107047,37.3335620,0</coordinates></Point>
</Placemark>
<Placemark>
<name>134</name>
<ExtendedData><Data name="numero"><value>134</value></Data></ExtendedData>
<Point><coordinates>-122.0103658,37.3335620,0</coordinates></Point>
</Placemark>
<Placemark>
<name>135</name>
<ExtendedData><Data name="numero"><value>135</value></Data></ExtendedData>
<Point><coordinates>-122.0100268,37.3335620,0</coordinates></Point>
</Placemark>
<Placemark>
<name>136</name>
<ExtendedData><Data name="numero"><value>136</value></Data></ExtendedData>
<Point><coordinates>-122.0096879,37.3335620,0</coordinates></Point>
</Placemark>
<Placemark>
<name>137</name>
<ExtendedData><Data name="numero"><value>137</value></Data></ExtendedData>
<Point><coordinates>-122.0093489,37.3335620,0</coordinates></Point>
</Placemark>
<Placemark>
<name>138</name>
<ExtendedData><Data name="numero"><value>138</value></Data></ExtendedData>
<Point><coordinates>-122.0090100,37.3335620,0</coordinates></Point>
</Placemark>
<Placemark>
<name>139</name>
<ExtendedData><Data name="numero"><value>139</value></Data></ExtendedData>
<Point><coordinates>-122.0086711,37.3335620,0</coordinates></Point>
</Placemark>
<Placemark>
<name>140</name>
<ExtendedData><Data name="numero"><value>140</value></Data></ExtendedData>
<Point><coordinates>-122.0083321,37.3335620,0</coordinates></Point>
</Placemark>
<Placemark>
<name>141</name>
<ExtendedData><Data name="numero"><value>141</value></Data></ExtendedData>
<Point><coordinates>-122.0079932,37.3335620,0</coordinates></Point>
</Placemark>
<Placemark>
<name>142</name>
<ExtendedData><Data name="numero"><value>142</value></Data></ExtendedData>
<Point><coordinates>-122.0076542,37.3335620,0</coordinates></Point>
</Placemark>
<Placemark>
<name>143</name>
<ExtendedData><Data name="numero"><value>143</value></Data></ExtendedData>
<Point><coordinates>-122.0073153,37.3335620,0</coordinates></Point>
</Placemark>
<Placemark>
<name>144</name>
<ExtendedData><Data name="numero"><value>144</value></Data></ExtendedData>
<Point><coordinates>-122.0069764,37.3335620,0</coordinates></Point>
</Placemark>
<Placemark>
<name>145</name>
<ExtendedData><Data name="numero"><value>145</value></Data></ExtendedData>
<Point><coordinates>-122.0066374,37.3335620,0</coordinates></Point>
</Placemark>
<Placemark>
<name>146</name>
<ExtendedData><Data name="numero"><value>146</value></Data></ExtendedData>
<Point><coordinates>-122.0062985,37.3335620,0</coordinates></Point>
</Placemark>
<Placemark>
<name>147</name>
<ExtendedData><Data name="numero"><value>147</value></Data></ExtendedData>
<Point><coordinates>-122.0059595,37.3335620,0</coordinates></Point>
</Placemark>
<Placemark>
<name>148</name>
<ExtendedData><Data name="numero"><value>148</value></Data></ExtendedData>
<Point><coordinates>-122.0056206,37.3335620,0</coordinates></Point>
</Placemark>
<Placemark>
<name>149</name>
<ExtendedData><Data name="numero"><value>149</value></Data></ExtendedData>
<Point><coordinates>-122.0052817,37.3335620,0</coordinates></Point>
</Placemark>
<Placemark>
<name>150</name>
<ExtendedData><Data name="numero"><value>150</value></Data></ExtendedData>
<Point><coordinates>-122.0052817,37.3338315,0</coordinates></Point>
</Placemark>
<Placemark>
<name>151</name>
<ExtendedData><Data name="numero"><value>151</value></Data></ExtendedData>
<Point><coordinates>-122.0056206,37.3338315,0</coordinates></Point>
</Placemark>
<Placemark>
<name>152</name>
<ExtendedData><Data name="numero"><value>152</value></Data></ExtendedData>
<Point><coordinates>-122.0059595,37.3338315,0</coordinates></Point>
</Placemark>
<Placemark>
<name>153</name>
<ExtendedData><Data name="numero"><value>153</value></Data></ExtendedData>
<Point><coordinates>-122.0062985,37.3338315,0</coordinates></Point>
</Placemark>
<Placemark>
<name>154</name>
<ExtendedData><Data name="numero"><value>154</value></Data></ExtendedData>
<Point><coordinates>-122.0066374,37.3338315,0</coordinates></Point>
</Placemark>
<Placemark>
<name>155</name>
<ExtendedData><Data name="numero"><value>155</value></Data></ExtendedData>
<Point><coordinates>-122.0069764,37.3338315,0</coordinates></Point>
</Placemark>
<Placemark>
<name>156</name>
<ExtendedData><Data name="numero"><value>156</value></Data></ExtendedData>
<Point><coordinates>-122.0073153,37.3338315,0</coordinates></Point>
</Placemark>
<Placemark>
<name>157</name>
<ExtendedData><Data name="numero"><value>157</value></Data></ExtendedData>
<Point><coordinates>-122.0076542,37.3338315,0</coordinates></Point>
</Placemark>
<Placemark>
<name>158</name>
<ExtendedData><Data name="numero"><value>158</value></Data></ExtendedData>
<Point><coordinates>-122.0079932,37.3338315,0</coordinates></Point>
</Placemark>
<Placemark>
<name>159</name>
<ExtendedData><Data name="numero"><value>159</value></Data></ExtendedData>
<Point><coordinates>-122.0083321,37.3338315,0</coordinates></Point>
</Placemark>
<Placemark>
<name>160</name>
<ExtendedData><Data name="numero"><value>160</value></Data></ExtendedData>
<Point><coordinates>-122.0086711,37.3338315,0</coordinates></Point>
</Placemark>
<Placemark>
<name>161</name>
<ExtendedData><Data name="numero"><value>161</value></Data></ExtendedData>
<Point><coordinates>-122.0090100,37.3338315,0</coordinates></Point>
</Placemark>
<Placemark>
<name>162</name>
<ExtendedData><Data name="numero"><value>162</value></Data></ExtendedData>
<Point><coordinates>-122.0093489,37.3338315,0</coordinates></Point>
</Placemark>
<Placemark>
<name>163</name>
<ExtendedData><Data name="numero"><value>163</value></Data></ExtendedData>
<Point><coordinates>-122.0096879,37.3338315,0</coordinates></Point>
</Placemark>
<Placemark>
<name>164</name>
<ExtendedData><Data name="numero"><value>164</value></Data></ExtendedData>
<Point><coordinates>-122.0100268,37.3338315,0</coordinates></Point>
</Placemark>
<Placemark>
<name>165</name>
<ExtendedData><Data name="numero"><value>165</value></Data></ExtendedData>
<Point><coordinates>-122.0103658,37.3338315,0</coordinates></Point>
</Placemark>
<Placemark>
<name>166</name>
<ExtendedData><Data name="numero"><value>166</value></Data></ExtendedData>
<Point><coordinates>-122.0107047,37.3338315,0</coordinates></Point>
</Placemark>
<Placemark>
<name>167</name>
<ExtendedData><Data name="numero"><value>167</value></Data></ExtendedData>
<Point><coordinates>-122.0110436,37.3338315,0</coordinates></Point>
</Placemark>
<Placemark>
<name>168</name>
<ExtendedData><Data name="numero"><value>168</value></Data></ExtendedData>
<Point><coordinates>-122.0113826,37.3338315,0</coordinates></Point>
</Placemark>
<Placemark>
<name>169</name>
<ExtendedData><Data name="numero"><value>169</value></Data></ExtendedData>
<Point><coordinates>-122.0117215,37.3338315,0</coordinates></Point>
</Placemark>
<Placemark>
<name>170</name>
<ExtendedData><Data name="numero"><value>170</value></Data></ExtendedData>
<Point><coordinates>-122.0120605,37.3338315,0</coordinates></Point>
</Placemark>
<Placemark>
<name>171</name>
<ExtendedData><Data name="numero"><value>171</value></Data></ExtendedData>
<Point><coordinates>-122.0123994,37.3338315,0</coordinates></Point>
</Placemark>
<Placemark>
<name>172</name>
<ExtendedData><Data name="numero"><value>172</value></Data></ExtendedData>
<Point><coordinates>-122.0127383,37.3338315,0</coordinates></Point>
</Placemark>
<Placemark>
<name>173</name>
<ExtendedData><Data name="numero"><value>173</value></Data></ExtendedData>
<Point><coordinates>-122.0130773,37.3341010,0</coordinates></Point>
</Placemark>
<Placemark>
<name>174</name>
<ExtendedData><Data name="numero"><value>174</value></Data></ExtendedData>
<Point><coordinates>-122.0127383,37.3341010,0</coordinates></Point>
</Placemark>
<Placemark>
<name>175</name>
<ExtendedData><Data name="numero"><value>175</value></Data></ExtendedData>
<Point><coordinates>-122.0123994,37.3341010,0</coordinates></Point>
</Placemark>
<Placemark>
<name>176</name>
<ExtendedData><Data name="numero"><value>176</value></Data></ExtendedData>
<Point><coordinates>-122.0120605,37.3341010,0</coordinates></Point>
</Placemark>
<Placemark>
<name>177</name>
<ExtendedData><Data name="numero"><value>177</value></Data></ExtendedData>
<Point><coordinates>-122.0117215,37.3341010,0</coordinates></Point>
</Placemark>
<Placemark>
<name>178</name>
<ExtendedData><Data name="numero"><value>178</value></Data></ExtendedData>
<Point><coordinates>-122.0113826,37.3341010,0</coordinates></Point>
</Placemark>
<Placemark>
<name>179</name>
<ExtendedData><Data name="numero"><value>179</value></Data></ExtendedData>
<Point><coordinates>-122.0110436,37.3341010,0</coordinates></Point>
</Placemark>
<Placemark>
<name>180</name>
<ExtendedData><Data name="numero"><value>180</value></Data></ExtendedData>
<Point><coordinates>-122.0107047,37.3341010,0</coordinates></Point>
</Placemark>
<Placemark>
<name>181</name>
<ExtendedData><Data name="numero"><value>181</value></Data></ExtendedData>
<Point><coordinates>-122.0103658,37.3341010,0</coordinates></Point>
</Placemark>
<Placemark>
<name>182</name>
<ExtendedData><Data name="numero"><value>182</value></Data></ExtendedData>
<Point><coordinates>-122.0100268,37.3341010,0</coordinates></Point>
</Placemark>
<Placemark>
<name>183</name>
<ExtendedData><Data name="numero"><value>183</value></Data></ExtendedData>
<Point><coordinates>-122.0096879,37.3341010,0</coordinates></Point>
</Placemark>
<Placemark>
<name>184</name>
<ExtendedData><Data name="numero"><value>184</value></Data></ExtendedData>
<Point><coordinates>-122.0093489,37.3341010,0</coordinates></Point>
</Placemark>
<Placemark>
<name>185</name>
<ExtendedData><Data name="numero"><value>185</value></Data></ExtendedData>
<Point><coordinates>-122.0090100,37.3341010,0</coordinates></Point>
</Placemark>
<Placemark>
<name>186</name>
<ExtendedData><Data name="numero"><value>186</value></Data></ExtendedData>
<Point><coordinates>-122.0086711,37.3341010,0</coordinates></Point>
</Placemark>
<Placemark>
<name>187</name>
<ExtendedData><Data name="numero"><value>187</value></Data></ExtendedData>
<Point><coordinates>-122.0083321,37.3341010,0</coordinates></Point>
</Placemark>
<Placemark>
<name>188</name>
<ExtendedData><Data name="numero"><value>188</value></Data></ExtendedData>
<Point><coordinates>-122.0079932,37.3341010,0</coordinates></Point>
</Placemark>
<Placemark>
<name>189</name>
<ExtendedData><Data name="numero"><value>189</value></Data></ExtendedData>
<Point><coordinates>-122.0076542,37.3341010,0</coordinates></Point>
</Placemark>
<Placemark>
<name>190</name>
<ExtendedData><Data name="numero"><value>190</value></Data></ExtendedData>
<Point><coordinates>-122.0073153,37.3341010,0</coordinates></Point>
</Placemark>
<Placemark>
<name>191</name>
<ExtendedData><Data name="numero"><value>191</value></Data></ExtendedData>
<Point><coordinates>-122.0069764,37.3341010,0</coordinates></Point>
</Placemark>
<Placemark>
<name>192</name>
<ExtendedData><Data name="numero"><value>192</value></Data></ExtendedData>
<Point><coordinates>-122.0066374,37.3341010,0</coordinates></Point>
</Placemark>
<Placemark>
<name>193</name>
<ExtendedData><Data name="numero"><value>193</value></Data></ExtendedData>
<Point><coordinates>-122.0062985,37.3341010,0</coordinates></Point>
</Placemark>
<Placemark>
<name>194</name>
<ExtendedData><Data name="numero"><value>194</value></Data></ExtendedData>
<Point><coordinates>-122.0059595,37.3341010,0</coordinates></Point>
</Placemark>
<Placemark>
<name>195</name>
<ExtendedData><Data name="numero"><value>195</value></Data></ExtendedData>
<Point><coordinates>-122.0056206,37.3341010,0</coordinates></Point>
</Placemark>
<Placemark>
<name>196</name>
<ExtendedData><Data name="numero"><value>196</value></Data></ExtendedData>
<Point><coordinates>-122.0052817,37.3341010,0</coordinates></Point>
</Placemark>
<Placemark>
<name>197</name>
<ExtendedData><Data name="numero"><value>197</value></Data></ExtendedData>
<Point><coordinates>-122.0052817,37.3343705,0</coordinates></Point>
</Placemark>
<Placemark>
<name>198</name>
<ExtendedData><Data name="numero"><value>198</value></Data></ExtendedData>
<Point><coordinates>-122.0056206,37.3343705,0</coordinates></Point>
</Placemark>
<Placemark>
<name>199</name>
<ExtendedData><Data name="numero"><value>199</value></Data></ExtendedData>
<Point><coordinates>-122.0059595,37.3343705,0</coordinates></Point>
</Placemark>
<Placemark>
<name>200</name>
<ExtendedData><Data name="numero"><value>200</value></Data></ExtendedData>
<Point><coordinates>-122.0062985,37.3343705,0</coordinates></Point>
</Placemark>
<Placemark>
<name>201</name>
<ExtendedData><Data name="numero"><value>201</value></Data></ExtendedData>
<Point><coordinates>-122.0066374,37.3343705,0</coordinates></Point>
</Placemark>
<Placemark>
<name>202</name>
<ExtendedData><Data name="numero"><value>202</value></Data></ExtendedData>
<Point><coordinates>-122.0069764,37.3343705,0</coordinates></Point>
</Placemark>
<Placemark>
<name>203</name>
<ExtendedData><Data name="numero"><value>203</value></Data></ExtendedData>
<Point><coordinates>-122.0073153,37.3343705,0</coordinates></Point>
</Placemark>
<Placemark>
<name>204</name>
<ExtendedData><Data name="numero"><value>204</value></Data></ExtendedData>
<Point><coordinates>-122.0076542,37.3343705,0</coordinates></Point>
</Placemark>
<Placemark>
<name>205</name>
<ExtendedData><Data name="numero"><value>205</value></Data></ExtendedData>
<Point><coordinates>-122.0079932,37.3343705,0</coordinates></Point>
</Placemark>
<Placemark>
<name>206</name>
<ExtendedData><Data name="numero"><value>206</value></Data></ExtendedData>
<Point><coordinates>-122.0083321,37.3343705,0</coordinates></Point>
</Placemark>
<Placemark>
<name>207</name>
<ExtendedData><Data name="numero"><value>207</value></Data></ExtendedData>
<Point><coordinates>-122.0086711,37.3343705,0</coordinates></Point>
</Placemark>
<Placemark>
<name>208</name>
<ExtendedData><Data name="numero"><value>208</value></Data></ExtendedData>
<Point><coordinates>-122.0090100,37.3343705,0</coordinates></Point>
</Placemark>
<Placemark>
<name>209</name>
<ExtendedData><Data name="numero"><value>209</value></Data></ExtendedData>
<Point><coordinates>-122.0093489,37.3343705,0</coordinates></Point>
</Placemark>
<Placemark>
<name>210</name>
<ExtendedData><Data name="numero"><value>210</value></Data></ExtendedData>
<Point><coordinates>-122.0096879,37.3343705,0</coordinates></Point>
</Placemark>
<Placemark>
<name>211</name>
<ExtendedData><Data name="numero"><value>211</value></Data></ExtendedData>
<Point><coordinates>-122.0100268,37.3343705,0</coordinates></Point>
</Placemark>
<Placemark>
<name>212</name>
<ExtendedData><Data name="numero"><value>212</value></Data></ExtendedData>
<Point><coordinates>-122.0103658,37.3343705,0</coordinates></Point>
</Placemark>
<Placemark>
<name>213</name>
<ExtendedData><Data name="numero"><value>213</value></Data></ExtendedData>
<Point><coordinates>-122.0107047,37.3343705,0</coordinates></Point>
</Placemark>
<Placemark>
<name>214</name>
<ExtendedData><Data name="numero"><value>214</value></Data></ExtendedData>
<Point><coordinates>-122.0110436,37.3343705,0</coordinates></Point>
</Placemark>
<Placemark>
<name>215</name>
<ExtendedData><Data name="numero"><value>215</value></Data></ExtendedData>
<Point><coordinates>-122.0113826,37.3343705,0</coordinates></Point>
</Placemark>
<Placemark>
<name>216</name>
<ExtendedData><Data name="numero"><value>216</value></Data></ExtendedData>
<Point><coordinates>-122.0117215,37.3343705,0</coordinates></Point>
</Placemark>
<Placemark>
<name>217</name>
<ExtendedData><Data name="numero"><value>217</value></Data></ExtendedData>
<Point><coordinates>-122.0120605,37.3343705,0</coordinates></Point>
</Placemark>
<Placemark>
<name>218</name>
<ExtendedData><Data name="numero"><value>218</value></Data></ExtendedData>
<Point><coordinates>-122.0123994,37.3343705,0</coordinates></Point>
</Placemark>
<Placemark>
<name>219</name>
<ExtendedData><Data name="numero"><value>219</value></Data></ExtendedData>
<Point><coordinates>-122.0127383,37.3343705,0</coordinates></Point>
</Placemark>
<Placemark>
<name>220</name>
<ExtendedData><Data name="numero"><value>220</value></Data></ExtendedData>
<Point><coordinates>-122.0130773,37.3343705,0</coordinates></Point>
</Placemark>
<Placemark>
<name>221</name>
<ExtendedData><Data name="numero"><value>221</value></Data></ExtendedData>
<Point><coordinates>-122.0130773,37.3346400,0</coordinates></Point>
</Placemark>
<Placemark>
<name>222</name>
<ExtendedData><Data name="numero"><value>222</value></Data></ExtendedData>
<Point><coordinates>-122.0127383,37.3346400,0</coordinates></Point>
</Placemark>
<Placemark>
<name>223</name>
<ExtendedData><Data name="numero"><value>223</value></Data></ExtendedData>
<Point><coordinates>-122.0123994,37.3346400,0</coordinates></Point>
</Placemark>
<Placemark>
<name>224</name>
<ExtendedData><Data name="numero"><value>224</value></Data></ExtendedData>
<Point><coordinates>-122.0120605,37.3346400,0</coordinates></Point>
</Placemark>
<Placemark>
<name>225</name>
<ExtendedData><Data name="numero"><value>225</value></Data></ExtendedData>
<Point><coordinates>-122.0117215,37.3346400,0</coordinates></Point>
</Placemark>
<Placemark>
<name>226</name>
<ExtendedData><Data name="numero"><value>226</value></Data></ExtendedData>
<Point><coordinates>-122.0113826,37.3346400,0</coordinates></Point>
</Placemark>
<Placemark>
<name>227</name>
<ExtendedData><Data name="numero"><value>227</value></Data></ExtendedData>
<Point><coordinates>-122.0110436,37.3346400,0</coordinates></Point>
</Placemark>
<Placemark>
<name>228</name>
<ExtendedData><Data name="numero"><value>228</value></Data></ExtendedData>
<Point><coordinates>-122.0107047,37.3346400,0</coordinates></Point>
</Placemark>
<Placemark>
<name>229</name>
<ExtendedData><Data name="numero"><value>229</value></Data></ExtendedData>
<Point><coordinates>-122.0103658,37.3346400,0</coordinates></Point>
</Placemark>
<Placemark>
<name>230</name>
<ExtendedData><Data name="numero"><value>230</value></Data></ExtendedData>
<Point><coordinates>-122.0100268,37.3346400,0</coordinates></Point>
</Placemark>
<Placemark>
<name>231</name>
<ExtendedData><Data name="numero"><value>231</value></Data></ExtendedData>
<Point><coordinates>-122.0096879,37.3346400,0</coordinates></Point>
</Placemark>
<Placemark>
<name>232</name>
<ExtendedData><Data name="numero"><value>232</value></Data></ExtendedData>
<Point><coordinates>-122.0093489,37.3346400,0</coordinates></Point>
</Placemark>
<Placemark>
<name>233</name>
<ExtendedData><Data name="numero"><value>233</value></Data></ExtendedData>
<Point><coordinates>-122.0090100,37.3346400,0</coordinates></Point>
</Placemark>
<Placemark>
<name>234</name>
<ExtendedData><Data name="numero"><value>234</value></Data></ExtendedData>
<Point><coordinates>-122.0086711,37.3346400,0</coordinates></Point>
</Placemark>
<Placemark>
<name>235</name>
<ExtendedData><Data name="numero"><value>235</value></Data></ExtendedData>
<Point><coordinates>-122.0083321,37.3346400,0</coordinates></Point>
</Placemark>
<Placemark>
<name>236</name>
<ExtendedData><Data name="numero"><value>236</value></Data></ExtendedData>
<Point><coordinates>-122.0079932,37.3346400,0</coordinates></Point>
</Placemark>
<Placemark>
<name>237</name>
<ExtendedData><Data name="numero"><value>237</value></Data></ExtendedData>
<Point><coordinates>-122.0076542,37.3346400,0</coordinates></Point>
</Placemark>
<Placemark>
<name>238</name>
<ExtendedData><Data name="numero"><value>238</value></Data></ExtendedData>
<Point><coordinates>-122.0073153,37.3346400,0</coordinates></Point>
</Placemark>
<Placemark>
<name>239</name>
<ExtendedData><Data name="numero"><value>239</value></Data></ExtendedData>
<Point><coordinates>-122.0069764,37.3346400,0</coordinates></Point>
</Placemark>
<Placemark>
<name>240</name>
<ExtendedData><Data name="numero"><value>240</value></Data></ExtendedData>
<Point><coordinates>-122.0066374,37.3346400,0</coordinates></Point>
</Placemark>
<Placemark>
<name>241</name>
<ExtendedData><Data name="numero"><value>241</value></Data></ExtendedData>
<Point><coordinates>-122.0062985,37.3346400,0</coordinates></Point>
</Placemark>
<Placemark>
<name>242</name>
<ExtendedData><Data name="numero"><value>242</value></Data></ExtendedData>
<Point><coordinates>-122.0059595,37.3346400,0</coordinates></Point>
</Placemark>
<Placemark>
<name>243</name>
<ExtendedData><Data name="numero"><value>243</value></Data></ExtendedData>
<Point><coordinates>-122.0056206,37.3346400,0</coordinates></Point>
</Placemark>
<Placemark>
<name>244</name>
<ExtendedData><Data name="numero"><value>244</value></Data></ExtendedData>
<Point><coordinates>-122.0052817,37.3346400,0</coordinates></Point>
</Placemark>
<Placemark>
<name>245</name>
<ExtendedData><Data name="numero"><value>245</value></Data></ExtendedData>
<Point><coordinates>-122.0052817,37.3349095,0</coordinates></Point>
</Placemark>
<Placemark>
<name>246</name>
<ExtendedData><Data name="numero"><value>246</value></Data></ExtendedData>
<Point><coordinates>-122.0056206,37.3349095,0</coordinates></Point>
</Placemark>
<Placemark>
<name>247</name>
<ExtendedData><Data name="numero"><value>247</value></Data></ExtendedData>
<Point><coordinates>-122.0059595,37.3349095,0</coordinates></Point>
</Placemark>
<Placemark>
<name>248</name>
<ExtendedData><Data name="numero"><value>248</value></Data></ExtendedData>
<Point><coordinates>-122.0062985,37.3349095,0</coordinates></Point>
</Placemark>
<Placemark>
<name>249</name>
<ExtendedData><Data name="numero"><value>249</value></Data></ExtendedData>
<Point><coordinates>-122.0066374,37.3349095,0</coordinates></Point>
</Placemark>
<Placemark>
<name>250</name>
<ExtendedData><Data name="numero"><value>250</value></Data></ExtendedData>
<Point><coordinates>-122.0069764,37.3349095,0</coordinates></Point>
</Placemark>
<Placemark>
<name>251</name>
<ExtendedData><Data name="numero"><value>251</value></Data></ExtendedData>
<Point><coordinates>-122.0073153,37.3349095,0</coordinates></Point>
</Placemark>
<Placemark>
<name>252</name>
<ExtendedData><Data name="numero"><value>252</value></Data></ExtendedData>
<Point><coordinates>-122.0076542,37.3349095,0</coordinates></Point>
</Placemark>
<Placemark>
<name>253</name>
<ExtendedData><Data name="numero"><value>253</value></Data></ExtendedData>
<Point><coordinates>-122.0079932,37.3349095,0</coordinates></Point>
</Placemark>
<Placemark>
<name>254</name>
<ExtendedData><Data name="numero"><value>254</value></Data></ExtendedData>
<Point><coordinates>-122.0083321,37.3349095,0</coordinates></Point>
</Placemark>
<Placemark>
<name>255</name>
<ExtendedData><Data name="numero"><value>255</value></Data></ExtendedData>
<Point><coordinates>-122.0086711,37.3349095,0</coordinates></Point>
</Placemark>
<Placemark>
<name>256</name>
<ExtendedData><Data name="numero"><value>256</value></Data></ExtendedData>
<Point><coordinates>-122.0090100,37.3349095,0</coordinates></Point>
</Placemark>
<Placemark>
<name>257</name>
<ExtendedData><Data name="numero"><value>257</value></Data></ExtendedData>
<Point><coordinates>-122.0093489,37.3349095,0</coordinates></Point>
</Placemark>
<Placemark>
<name>258</name>
<ExtendedData><Data name="numero"><value>258</value></Data></ExtendedData>
<Point><coordinates>-122.0096879,37.3349095,0</coordinates></Point>
</Placemark>
<Placemark>
<name>259</name>
<ExtendedData><Data name="numero"><value>259</value></Data></ExtendedData>
<Point><coordinates>-122.0100268,37.3349095,0</coordinates></Point>
</Placemark>
<Placemark>
<name>260</name>
<ExtendedData><Data name="numero"><value>260</value></Data></ExtendedData>
<Point><coordinates>-122.0103658,37.3349095,0</coordinates></Point>
</Placemark>
<Placemark>
<name>261</name>
<ExtendedData><Data name="numero"><value>261</value></Data></ExtendedData>
<Point><coordinates>-122.0107047,37.3349095,0</coordinates></Point>
</Placemark>
<Placemark>
<name>262</name>
<ExtendedData><Data name="numero"><value>262</value></Data></ExtendedData>
<Point><coordinates>-122.0110436,37.3349095,0</coordinates></Point>
</Placemark>
<Placemark>
<name>263</name>
<ExtendedData><Data name="numero"><value>263</value></Data></ExtendedData>
<Point><coordinates>-122.0113826,37.3349095,0</coordinates></Point>
</Placemark>
<Placemark>
<name>264</name>
<ExtendedData><Data name="numero"><value>264</value></Data></ExtendedData>
<Point><coordinates>-122.0117215,37.3349095,0</coordinates></Point>
</Placemark>
<Placemark>
<name>265</name>
<ExtendedData><Data name="numero"><value>265</value></Data></ExtendedData>
<Point><coordinates>-122.0120605,37.3349095,0</coordinates></Point>
</Placemark>
<Placemark>
<name>266</name>
<ExtendedData><Data name="numero"><value>266</value></Data></ExtendedData>
<Point><coordinates>-122.0123994,37.3349095,0</coordinates></Point>
</Placemark>
<Placemark>
<name>267</name>
<ExtendedData><Data name="numero"><value>267</value></Data></ExtendedData>
<Point><coordinates>-122.0127383,37.3349095,0</coordinates></Point>
</Placemark>
<Placemark>
<name>268</name>
<ExtendedData><Data name="numero"><value>268</value></Data></ExtendedData>
<Point><coordinates>-122.0130773,37.3349095,0</coordinates></Point>
</Placemark>
<Placemark>
<name>269</name>
<ExtendedData><Data name="numero"><value>269</value></Data></ExtendedData>
<Point><coordinates>-122.0130773,37.3351790,0</coordinates></Point>
</Placemark>
<Placemark>
<name>270</name>
<ExtendedData><Data name="numero"><value>270</value></Data></ExtendedData>
<Point><coordinates>-122.0127383,37.3351790,0</coordinates></Point>
</Placemark>
<Placemark>
<name>271</name>
<ExtendedData><Data name="numero"><value>271</value></Data></ExtendedData>
<Point><coordinates>-122.0123994,37.3351790,0</coordinates></Point>
</Placemark>
<Placemark>
<name>272</name>
<ExtendedData><Data name="numero"><value>272</value></Data></ExtendedData>
<Point><coordinates>-122.0120605,37.3351790,0</coordinates></Point>
</Placemark>
<Placemark>
<name>273</name>
<ExtendedData><Data name="numero"><value>273</value></Data></ExtendedData>
<Point><coordinates>-122.0117215,37.3351790,0</coordinates></Point>
</Placemark>
<Placemark>
<name>274</name>
<ExtendedData><Data name="numero"><value>274</value></Data></ExtendedData>
<Point><coordinates>-122.0113826,37.3351790,0</coordinates></Point>
</Placemark>
<Placemark>
<name>275</name>
<ExtendedData><Data name="numero"><value>275</value></Data></ExtendedData>
<Point><coordinates>-122.0110436,37.3351790,0</coordinates></Point>
</Placemark>
<Placemark>
<name>276</name>
<ExtendedData><Data name="numero"><value>276</value></Data></ExtendedData>
<Point><coordinates>-122.0107047,37.3351790,0</coordinates></Point>
</Placemark>
<Placemark>
<name>277</name>
<ExtendedData><Data name="numero"><value>277</value></Data></ExtendedData>
<Point><coordinates>-122.0103658,37.3351790,0</coordinates></Point>
</Placemark>
<Placemark>
<name>278</name>
<ExtendedData><Data name="numero"><value>278</value></Data></ExtendedData>
<Point><coordinates>-122.0100268,37.3351790,0</coordinates></Point>
</Placemark>
<Placemark>
<name>279</name>
<ExtendedData><Data name="numero"><value>279</value></Data></ExtendedData>
<Point><coordinates>-122.0096879,37.3351790,0</coordinates></Point>
</Placemark>
<Placemark>
<name>280</name>
<ExtendedData><Data name="numero"><value>280</value></Data></ExtendedData>
<Point><coordinates>-122.0093489,37.3351790,0</coordinates></Point>
</Placemark>
<Placemark>
<name>281</name>
<ExtendedData><Data name="numero"><value>281</value></Data></ExtendedData>
<Point><coordinates>-122.0090100,37.3351790,0</coordinates></Point>
</Placemark>
<Placemark>
<name>282</name>
<ExtendedData><Data name="numero"><value>282</value></Data></ExtendedData>
<Point><coordinates>-122.0086711,37.3351790,0</coordinates></Point>
</Placemark>
<Placemark>
<name>283</name>
<ExtendedData><Data name="numero"><value>283</value></Data></ExtendedData>
<Point><coordinates>-122.0083321,37.3351790,0</coordinates></Point>
</Placemark>
<Placemark>
<name>284</name>
<ExtendedData><Data name="numero"><value>284</value></Data></ExtendedData>
<Point><coordinates>-122.0079932,37.3351790,0</coordinates></Point>
</Placemark>
<Placemark>
<name>285</name>
<ExtendedData><Data name="numero"><value>285</value></Data></ExtendedData>
<Point><coordinates>-122.0076542,37.3351790,0</coordinates></Point>
</Placemark>
<Placemark>
<name>286</name>
<ExtendedData><Data name="numero"><value>286</value></Data></ExtendedData>
<Point><coordinates>-122.0073153,37.3351790,0</coordinates></Point>
</Placemark>
<Placemark>
<name>287</name>
<ExtendedData><Data name="numero"><value>287</value></Data></ExtendedData>
<Point><coordinates>-122.0069764,37.3351790,0</coordinates></Point>
</Placemark>
<Placemark>
<name>288</name>
<ExtendedData><Data name="numero"><value>288</value></Data></ExtendedData>
<Point><coordinates>-122.0066374,37.3351790,0</coordinates></Point>
</Placemark>
<Placemark>
<name>289</name>
<ExtendedData><Data name="numero"><value>289</value></Data></ExtendedData>
<Point><coordinates>-122.0062985,37.3351790,0</coordinates></Point>
</Placemark>
<Placemark>
<name>290</name>
<ExtendedData><Data name="numero"><value>290</value></Data></ExtendedData>
<Point><coordinates>-122.0059595,37.3351790,0</coordinates></Point>
</Placemark>
<Placemark>
<name>291</name>
<ExtendedData><Data name="numero"><value>291</value></Data></ExtendedData>
<Point><coordinates>-122.0056206,37.3351790,0</coordinates></Point>
</Placemark>
<Placemark>
<name>292</name>
<ExtendedData><Data name="numero"><value>292</value></Data></ExtendedData>
<Point><coordinates>-122.0052817,37.3351790,0</coordinates></Point>
</Placemark>
<Placemark>
<name>293</name>
<ExtendedData><Data name="numero"><value>293</value></Data></ExtendedData>
<Point><coordinates>-122.0049427,37.3354485,0</coordinates></Point>
</Placemark>
<Placemark>
<name>294</name>
<ExtendedData><Data name="numero"><value>294</value></Data></ExtendedData>
<Point><coordinates>-122.0052817,37.3354485,0</coordinates></Point>
</Placemark>
<Placemark>
<name>295</name>
<ExtendedData><Data name="numero"><value>295</value></Data></ExtendedData>
<Point><coordinates>-122.0056206,37.3354485,0</coordinates></Point>
</Placemark>
<Placemark>
<name>296</name>
<ExtendedData><Data name="numero"><value>296</value></Data></ExtendedData>
<Point><coordinates>-122.0059595,37.3354485,0</coordinates></Point>
</Placemark>
<Placemark>
<name>297</name>
<ExtendedData><Data name="numero"><value>297</value></Data></ExtendedData>
<Point><coordinates>-122.0062985,37.3354485,0</coordinates></Point>
</Placemark>
<Placemark>
<name>298</name>
<ExtendedData><Data name="numero"><value>298</value></Data></ExtendedData>
<Point><coordinates>-122.0066374,37.3354485,0</coordinates></Point>
</Placemark>
<Placemark>
<name>299</name>
<ExtendedData><Data name="numero"><value>299</value></Data></ExtendedData>
<Point><coordinates>-122.0069764,37.3354485,0</coordinates></Point>
</Placemark>
<Placemark>
<name>300</name>
<ExtendedData><Data name="numero"><value>300</value></Data></ExtendedData>
<Point><coordinates>-122.0073153,37.3354485,0</coordinates></Point>
</Placemark>
<Placemark>
<name>301</name>
<ExtendedData><Data name="numero"><value>301</value></Data></ExtendedData>
<Point><coordinates>-122.0076542,37.3354485,0</coordinates></Point>
</Placemark>
<Placemark>
<name>302</name>
<ExtendedData><Data name="numero"><value>302</value></Data></ExtendedData>
<Point><coordinates>-122.0079932,37.3354485,0</coordinates></Point>
</Placemark>
<Placemark>
<name>303</name>
<ExtendedData><Data name="numero"><value>303</value></Data></ExtendedData>
<Point><coordinates>-122.0083321,37.3354485,0</coordinates></Point>
</Placemark>
<Placemark>
<name>304</name>
<ExtendedData><Data name="numero"><value>304</value></Data></ExtendedData>
<Point><coordinates>-122.0086711,37.3354485,0</coordinates></Point>
</Placemark>
<Placemark>
<name>305</name>
<ExtendedData><Data name="numero"><value>305</value></Data></ExtendedData>
<Point><coordinates>-122.0090100,37.3354485,0</coordinates></Point>
</Placemark>
<Placemark>
<name>306</name>
<ExtendedData><Data name="numero"><value>306</value></Data></ExtendedData>
<Point><coordinates>-122.0093489,37.3354485,0</coordinates></Point>
</Placemark>
<Placemark>
<name>307</name>
<ExtendedData><Data name="numero"><value>307</value></Data></ExtendedData>
<Point><coordinates>-122.0096879,37.3354485,0</coordinates></Point>
</Placemark>
<Placemark>
<name>308</name>
<ExtendedData><Data name="numero"><value>308</value></Data></ExtendedData>
<Point><coordinates>-122.0100268,37.3354485,0</coordinates></Point>
</Placemark>
<Placemark>
<name>309</name>
<ExtendedData><Data name="numero"><value>309</value></Data></ExtendedData>
<Point><coordinates>-122.0103658,37.3354485,0</coordinates></Point>
</Placemark>
<Placemark>
<name>310</name>
<ExtendedData><Data name="numero"><value>310</value></Data></ExtendedData>
<Point><coordinates>-122.0107047,37.3354485,0</coordinates></Point>
</Placemark>
<Placemark>
<name>311</name>
<ExtendedData><Data name="numero"><value>311</value></Data></ExtendedData>
<Point><coordinates>-122.0110436,37.3354485,0</coordinates></Point>
</Placemark>
<Placemark>
<name>312</name>
<ExtendedData><Data name="numero"><value>312</value></Data></ExtendedData>
<Point><coordinates>-122.0113826,37.3354485,0</coordinates></Point>
</Placemark>
<Placemark>
<name>313</name>
<ExtendedData><Data name="numero"><value>313</value></Data></ExtendedData>
<Point><coordinates>-122.0117215,37.3354485,0</coordinates></Point>
</Placemark>
<Placemark>
<name>314</name>
<ExtendedData><Data name="numero"><value>314</value></Data></ExtendedData>
<Point><coordinates>-122.0120605,37.3354485,0</coordinates></Point>
</Placemark>
<Placemark>
<name>315</name>
<ExtendedData><Data name="numero"><value>315</value></Data></ExtendedData>
<Point><coordinates>-122.0123994,37.3354485,0</coordinates></Point>
</Placemark>
<Placemark>
<name>316</name>
<ExtendedData><Data name="numero"><value>316</value></Data></ExtendedData>
<Point><coordinates>-122.0127383,37.3354485,0</coordinates></Point>
</Placemark>
<Placemark>
<name>317</name>
<ExtendedData><Data name="numero"><value>317</value></Data></ExtendedData>
<Point><coordinates>-122.0130773,37.3354485,0</coordinates></Point>
</Placemark>
<Placemark>
<name>318</name>
<ExtendedData><Data name="numero"><value>318</value></Data></ExtendedData>
<Point><coordinates>-122.0130773,37.3357180,0</coordinates></Point>
</Placemark>
<Placemark>
<name>319</name>
<ExtendedData><Data name="numero"><value>319</value></Data></ExtendedData>
<Point><coordinates>-122.0127383,37.3357180,0</coordinates></Point>
</Placemark>
<Placemark>
<name>320</name>
<ExtendedData><Data name="numero"><value>320</value></Data></ExtendedData>
<Point><coordinates>-122.0123994,37.3357180,0</coordinates></Point>
</Placemark>
<Placemark>
<name>321</name>
<ExtendedData><Data name="numero"><value>321</value></Data></ExtendedData>
<Point><coordinates>-122.0120605,37.3357180,0</coordinates></Point>
</Placemark>
<Placemark>
<name>322</name>
<ExtendedData><Data name="numero"><value>322</value></Data></ExtendedData>
<Point><coordinates>-122.0117215,37.3357180,0</coordinates></Point>
</Placemark>
<Placemark>
<name>323</name>
<ExtendedData><Data name="numero"><value>323</value></Data></ExtendedData>
<Point><coordinates>-122.0113826,37.3357180,0</coordinates></Point>
</Placemark>
<Placemark>
<name>324</name>
<ExtendedData><Data name="numero"><value>324</value></Data></ExtendedData>
<Point><coordinates>-122.0110436,37.3357180,0</coordinates></Point>
</Placemark>
<Placemark>
<name>325</name>
<ExtendedData><Data name="numero"><value>325</value></Data></ExtendedData>
<Point><coordinates>-122.0107047,37.3357180,0</coordinates></Point>
</Placemark>
<Placemark>
<name>326</name>
<ExtendedData><Data name="numero"><value>326</value></Data></ExtendedData>
<Point><coordinates>-122.0103658,37.3357180,0</coordinates></Point>
</Placemark>
<Placemark>
<name>327</name>
<ExtendedData><Data name="numero"><value>327</value></Data></ExtendedData>
<Point><coordinates>-122.0100268,37.3357180,0</coordinates></Point>
</Placemark>
<Placemark>
<name>328</name>
<ExtendedData><Data name="numero"><value>328</value></Data></ExtendedData>
<Point><coordinates>-122.0096879,37.3357180,0</coordinates></Point>
</Placemark>
<Placemark>
<name>329</name>
<ExtendedData><Data name="numero"><value>329</value></Data></ExtendedData>
<Point><coordinates>-122.0093489,37.3357180,0</coordinates></Point>
</Placemark>
<Placemark>
<name>330</name>
<ExtendedData><Data name="numero"><value>330</value></Data></ExtendedData>
<Point><coordinates>-122.0090100,37.3357180,0</coordinates></Point>
</Placemark>
<Placemark>
<name>331</name>
<ExtendedData><Data name="numero"><value>331</value></Data></ExtendedData>
<Point><coordinates>-122.0086711,37.3357180,0</coordinates></Point>
</Placemark>
<Placemark>
<name>332</name>
<ExtendedData><Data name="numero"><value>332</value></Data></ExtendedData>
<Point><coordinates>-122.0083321,37.3357180,0</coordinates></Point>
</Placemark>
<Placemark>
<name>333</name>
<ExtendedData><Data name="numero"><value>333</value></Data></ExtendedData>
<Point><coordinates>-122.0079932,37.3357180,0</coordinates></Point>
</Placemark>
<Placemark>
<name>334</name>
<ExtendedData><Data name="numero"><value>334</value></Data></ExtendedData>
<Point><coordinates>-122.0076542,37.3357180,0</coordinates></Point>
</Placemark>
<Placemark>
<name>335</name>
<ExtendedData><Data name="numero"><value>335</value></Data></ExtendedData>
<Point><coordinates>-122.0073153,37.3357180,0</coordinates></Point>
</Placemark>
<Placemark>
<name>336</name>
<ExtendedData><Data name="numero"><value>336</value></Data></ExtendedData>
<Point><coordinates>-122.0069764,37.3357180,0</coordinates></Point>
</Placemark>
<Placemark>
<name>337</name>
<ExtendedData><Data name="numero"><value>337</value></Data></ExtendedData>
<Point><coordinates>-122.0066374,37.3357180,0</coordinates></Point>
</Placemark>
<Placemark>
<name>338</name>
<ExtendedData><Data name="numero"><value>338</value></Data></ExtendedData>
<Point><coordinates>-122.0062985,37.3357180,0</coordinates></Point>
</Placemark>
<Placemark>
<name>339</name>
<ExtendedData><Data name="numero"><value>339</value></Data></ExtendedData>
<Point><coordinates>-122.0059595,37.3357180,0</coordinates></Point>
</Placemark>
<Placemark>
<name>340</name>
<ExtendedData><Data name="numero"><value>340</value></Data></ExtendedData>
<Point><coordinates>-122.0056206,37.3357180,0</coordinates></Point>
</Placemark>
<Placemark>
<name>341</name>
<ExtendedData><Data name="numero"><value>341</value></Data></ExtendedData>
<Point><coordinates>-122.0052817,37.3357180,0</coordinates></Point>
</Placemark>
<Placemark>
<name>342</name>
<ExtendedData><Data name="numero"><value>342</value></Data></ExtendedData>
<Point><coordinates>-122.0049427,37.3357180,0</coordinates></Point>
</Placemark>
<Placemark>
<name>343</name>
<ExtendedData><Data name="numero"><value>343</value></Data></ExtendedData>
<Point><coordinates>-122.0049427,37.3359875,0</coordinates></Point>
</Placemark>
<Placemark>
<name>344</name>
<ExtendedData><Data name="numero"><value>344</value></Data></ExtendedData>
<Point><coordinates>-122.0052817,37.3359875,0</coordinates></Point>
</Placemark>
<Placemark>
<name>345</name>
<ExtendedData><Data name="numero"><value>345</value></Data></ExtendedData>
<Point><coordinates>-122.0056206,37.3359875,0</coordinates></Point>
</Placemark>
<Placemark>
<name>346</name>
<ExtendedData><Data name="numero"><value>346</value></Data></ExtendedData>
<Point><coordinates>-122.0059595,37.3359875,0</coordinates></Point>
</Placemark>
<Placemark>
<name>347</name>
<ExtendedData><Data name="numero"><value>347</value></Data></ExtendedData>
<Point><coordinates>-122.0062985,37.3359875,0</coordinates></Point>
</Placemark>
<Placemark>
<name>348</name>
<ExtendedData><Data name="numero"><value>348</value></Data></ExtendedData>
<Point><coordinates>-122.0066374,37.3359875,0</coordinates></Point>
</Placemark>
<Placemark>
<name>349</name>
<ExtendedData><Data name="numero"><value>349</value></Data></ExtendedData>
<Point><coordinates>-122.0069764,37.3359875,0</coordinates></Point>
</Placemark>
<Placemark>
<name>350</name>
<ExtendedData><Data name="numero"><value>350</value></Data></ExtendedData>
<Point><coordinates>-122.0073153,37.3359875,0</coordinates></Point>
</Placemark>
<Placemark>
<name>351</name>
<ExtendedData><Data name="numero"><value>351</value></Data></ExtendedData>
<Point><coordinates>-122.0076542,37.3359875,0</coordinates></Point>
</Placemark>
<Placemark>
<name>352</name>
<ExtendedData><Data name="numero"><value>352</value></Data></ExtendedData>
<Point><coordinates>-122.0079932,37.3359875,0</coordinates></Point>
</Placemark>
<Placemark>
<name>353</name>
<ExtendedData><Data name="numero"><value>353</value></Data></ExtendedData>
<Point><coordinates>-122.0083321,37.3359875,0</coordinates></Point>
</Placemark>
<Placemark>
<name>354</name>
<ExtendedData><Data name="numero"><value>354</value></Data></ExtendedData>
<Point><coordinates>-122.0086711,37.3359875,0</coordinates></Point>
</Placemark>
<Placemark>
<name>355</name>
<ExtendedData><Data name="numero"><value>355</value></Data></ExtendedData>
<Point><coordinates>-122.0090100,37.3359875,0</coordinates></Point>
</Placemark>
<Placemark>
<name>356</name>
<ExtendedData><Data name="numero"><value>356</value></Data></ExtendedData>
<Point><coordinates>-122.0093489,37.3359875,0</coordinates></Point>
</Placemark>
<Placemark>
<name>357</name>
<ExtendedData><Data name="numero"><value>357</value></Data></ExtendedData>
<Point><coordinates>-122.0096879,37.3359875,0</coordinates></Point>
</Placemark>
<Placemark>
<name>358</name>
<ExtendedData><Data name="numero"><value>358</value></Data></ExtendedData>
<Point><coordinates>-122.0100268,37.3359875,0</coordinates></Point>
</Placemark>
<Placemark>
<name>359</name>
<ExtendedData><Data name="numero"><value>359</value></Data></ExtendedData>
<Point><coordinates>-122.0103658,37.3359875,0</coordinates></Point>
</Placemark>
<Placemark>
<name>360</name>
<ExtendedData><Data name="numero"><value>360</value></Data></ExtendedData>
<Point><coordinates>-122.0107047,37.3359875,0</coordinates></Point>
</Placemark>
<Placemark>
<name>361</name>
<ExtendedData><Data name="numero"><value>361</value></Data></ExtendedData>
<Point><coordinates>-122.0110436,37.3359875,0</coordinates></Point>
</Placemark>
<Placemark>
<name>362</name>
<ExtendedData><Data name="numero"><value>362</value></Data></ExtendedData>
<Point><coordinates>-122.0113826,37.3359875,0</coordinates></Point>
</Placemark>
<Placemark>
<name>363</name>
<ExtendedData><Data name="numero"><value>363</value></Data></ExtendedData>
<Point><coordinates>-122.0117215,37.3359875,0</coordinates></Point>
</Placemark>
<Placemark>
<name>364</name>
<ExtendedData><Data name="numero"><value>364</value></Data></ExtendedData>
<Point><coordinates>-122.0120605,37.3359875,0</coordinates></Point>
</Placemark>
<Placemark>
<name>365</name>
<ExtendedData><Data name="numero"><value>365</value></Data></ExtendedData>
<Point><coordinates>-122.0123994,37.3359875,0</coordinates></Point>
</Placemark>
<Placemark>
<name>366</name>
<ExtendedData><Data name="numero"><value>366</value></Data></ExtendedData>
<Point><coordinates>-122.0127383,37.3359875,0</coordinates></Point>
</Placemark>
<Placemark>
<name>367</name>
<ExtendedData><Data name="numero"><value>367</value></Data></ExtendedData>
<Point><coordinates>-122.0130773,37.3359875,0</coordinates></Point>
</Placemark>
<Placemark>
<name>368</name>
<ExtendedData><Data name="numero"><value>368</value></Data></ExtendedData>
<Point><coordinates>-122.0130773,37.3362570,0</coordinates></Point>
</Placemark>
<Placemark>
<name>369</name>
<ExtendedData><Data name="numero"><value>369</value></Data></ExtendedData>
<Point><coordinates>-122.0127383,37.3362570,0</coordinates></Point>
</Placemark>
<Placemark>
<name>370</name>
<ExtendedData><Data name="numero"><value>370</value></Data></ExtendedData>
<Point><coordinates>-122.0123994,37.3362570,0</coordinates></Point>
</Placemark>
<Placemark>
<name>371</name>
<ExtendedData><Data name="numero"><value>371</value></Data></ExtendedData>
<Point><coordinates>-122.0120605,37.3362570,0</coordinates></Point>
</Placemark>
<Placemark>
<name>372</name>
<ExtendedData><Data name="numero"><value>372</value></Data></ExtendedData>
<Point><coordinates>-122.0117215,37.3362570,0</coordinates></Point>
</Placemark>
<Placemark>
<name>373</name>
<ExtendedData><Data name="numero"><value>373</value></Data></ExtendedData>
<Point><coordinates>-122.0113826,37.3362570,0</coordinates></Point>
</Placemark>
<Placemark>
<name>374</name>
<ExtendedData><Data name="numero"><value>374</value></Data></ExtendedData>
<Point><coordinates>-122.0110436,37.3362570,0</coordinates></Point>
</Placemark>
<Placemark>
<name>375</name>
<ExtendedData><Data name="numero"><value>375</value></Data></ExtendedData>
<Point><coordinates>-122.0107047,37.3362570,0</coordinates></Point>
</Placemark>
<Placemark>
<name>376</name>
<ExtendedData><Data name="numero"><value>376</value></Data></ExtendedData>
<Point><coordinates>-122.0103658,37.3362570,0</coordinates></Point>
</Placemark>
<Placemark>
<name>377</name>
<ExtendedData><Data name="numero"><value>377</value></Data></ExtendedData>
<Point><coordinates>-122.0100268,37.3362570,0</coordinates></Point>
</Placemark>
<Placemark>
<name>378</name>
<ExtendedData><Data name="numero"><value>378</value></Data></ExtendedData>
<Point><coordinates>-122.0096879,37.3362570,0</coordinates></Point>
</Placemark>
<Placemark>
<name>379</name>
<ExtendedData><Data name="numero"><value>379</value></Data></ExtendedData>
<Point><coordinates>-122.0093489,37.3362570,0</coordinates></Point>
</Placemark>
<Placemark>
<name>380</name>
<ExtendedData><Data name="numero"><value>380</value></Data></ExtendedData>
<Point><coordinates>-122.0090100,37.3362570,0</coordinates></Point>
</Placemark>
<Placemark>
<name>381</name>
<ExtendedData><Data name="numero"><value>381</value></Data></ExtendedData>
<Point><coordinates>-122.0086711,37.3362570,0</coordinates></Point>
</Placemark>
<Placemark>
<name>382</name>
<ExtendedData><Data name="numero"><value>382</value></Data></ExtendedData>
<Point><coordinates>-122.0083321,37.3362570,0</coordinates></Point>
</Placemark>
<Placemark>
<name>383</name>
<ExtendedData><Data name="numero"><value>383</value></Data></ExtendedData>
<Point><coordinates>-122.0079932,37.3362570,0</coordinates></Point>
</Placemark>
<Placemark>
<name>384</name>
<ExtendedData><Data name="numero"><value>384</value></Data></ExtendedData>
<Point><coordinates>-122.0076542,37.3362570,0</coordinates></Point>
</Placemark>
<Placemark>
<name>385</name>
<ExtendedData><Data name="numero"><value>385</value></Data></ExtendedData>
<Point><coordinates>-122.0073153,37.3362570,0</coordinates></Point>
</Placemark>
<Placemark>
<name>386</name>
<ExtendedData><Data name="numero"><value>386</value></Data></ExtendedData>
<Point><coordinates>-122.0069764,37.3362570,0</coordinates></Point>
</Placemark>
<Placemark>
<name>387</name>
<ExtendedData><Data name="numero"><value>387</value></Data></ExtendedData>
<Point><coordinates>-122.0066374,37.3362570,0</coordinates></Point>
</Placemark>
<Placemark>
<name>388</name>
<ExtendedData><Data name="numero"><value>388</value></Data></ExtendedData>
<Point><coordinates>-122.0062985,37.3362570,0</coordinates></Point>
</Placemark>
<Placemark>
<name>389</name>
<ExtendedData><Data name="numero"><value>389</value></Data></ExtendedData>
<Point><coordinates>-122.0059595,37.3362570,0</coordinates></Point>
</Placemark>
<Placemark>
<name>390</name>
<ExtendedData><Data name="numero"><value>390</value></Data></ExtendedData>
<Point><coordinates>-122.0056206,37.3362570,0</coordinates></Point>
</Placemark>
<Placemark>
<name>391</name>
<ExtendedData><Data name="numero"><value>391</value></Data></ExtendedData>
<Point><coordinates>-122.0052817,37.3362570,0</coordinates></Point>
</Placemark>
<Placemark>
<name>392</name>
<ExtendedData><Data name="numero"><value>392</value></Data></ExtendedData>
<Point><coordinates>-122.0049427,37.3362570,0</coordinates></Point>
</Placemark>
<Placemark>
<name>393</name>
<ExtendedData><Data name="numero"><value>393</value></Data></ExtendedData>
<Point><coordinates>-122.0049427,37.3365265,0</coordinates></Point>
</Placemark>
<Placemark>
<name>394</name>
<ExtendedData><Data name="numero"><value>394</value></Data></ExtendedData>
<Point><coordinates>-122.0052817,37.3365265,0</coordinates></Point>
</Placemark>
<Placemark>
<name>395</name>
<ExtendedData><Data name="numero"><value>395</value></Data></ExtendedData>
<Point><coordinates>-122.0056206,37.3365265,0</coordinates></Point>
</Placemark>
<Placemark>
<name>396</name>
<ExtendedData><Data name="numero"><value>396</value></Data></ExtendedData>
<Point><coordinates>-122.0059595,37.3365265,0</coordinates></Point>
</Placemark>
<Placemark>
<name>397</name>
<ExtendedData><Data name="numero"><value>397</value></Data></ExtendedData>
<Point><coordinates>-122.0062985,37.3365265,0</coordinates></Point>
</Placemark>
<Placemark>
<name>398</name>
<ExtendedData><Data name="numero"><value>398</value></Data></ExtendedData>
<Point><coordinates>-122.0066374,37.3365265,0</coordinates></Point>
</Placemark>
<Placemark>
<name>399</name>
<ExtendedData><Data name="numero"><value>399</value></Data></ExtendedData>
<Point><coordinates>-122.0069764,37.3365265,0</coordinates></Point>
</Placemark>
<Placemark>
<name>400</name>
<ExtendedData><Data name="numero"><value>400</value></Data></ExtendedData>
<Point><coordinates>-122.0073153,37.3365265,0</coordinates></Point>
</Placemark>
<Placemark>
<name>401</name>
<ExtendedData><Data name="numero"><value>401</value></Data></ExtendedData>
<Point><coordinates>-122.0076542,37.3365265,0</coordinates></Point>
</Placemark>
<Placemark>
<name>402</name>
<ExtendedData><Data name="numero"><value>402</value></Data></ExtendedData>
<Point><coordinates>-122.0079932,37.3365265,0</coordinates></Point>
</Placemark>
<Placemark>
<name>403</name>
<ExtendedData><Data name="numero"><value>403</value></Data></ExtendedData>
<Point><coordinates>-122.0083321,37.3365265,0</coordinates></Point>
</Placemark>
<Placemark>
<name>404</name>
<ExtendedData><Data name="numero"><value>404</value></Data></ExtendedData>
<Point><coordinates>-122.0086711,37.3365265,0</coordinates></Point>
</Placemark>
<Placemark>
<name>405</name>
<ExtendedData><Data name="numero"><value>405</value></Data></ExtendedData>
<Point><coordinates>-122.0090100,37.3365265,0</coordinates></Point>
</Placemark>
<Placemark>
<name>406</name>
<ExtendedData><Data name="numero"><value>406</value></Data></ExtendedData>
<Point><coordinates>-122.0093489,37.3365265,0</coordinates></Point>
</Placemark>
<Placemark>
<name>407</name>
<ExtendedData><Data name="numero"><value>407</value></Data></ExtendedData>
<Point><coordinates>-122.0096879,37.3365265,0</coordinates></Point>
</Placemark>
<Placemark>
<name>408</name>
<ExtendedData><Data name="numero"><value>408</value></Data></ExtendedData>
<Point><coordinates>-122.0100268,37.3365265,0</coordinates></Point>
</Placemark>
<Placemark>
<name>409</name>
<ExtendedData><Data name="numero"><value>409</value></Data></ExtendedData>
<Point><coordinates>-122.0103658,37.3365265,0</coordinates></Point>
</Placemark>
<Placemark>
<name>410</name>
<ExtendedData><Data name="numero"><value>410</value></Data></ExtendedData>
<Point><coordinates>-122.0107047,37.3365265,0</coordinates></Point>
</Placemark>
<Placemark>
<name>411</name>
<ExtendedData><Data name="numero"><value>411</value></Data></ExtendedData>
<Point><coordinates>-122.0110436,37.3365265,0</coordinates></Point>
</Placemark>
<Placemark>
<name>412</name>
<ExtendedData><Data name="numero"><value>412</value></Data></ExtendedData>
<Point><coordinates>-122.0113826,37.3365265,0</coordinates></Point>
</Placemark>
<Placemark>
<name>413</name>
<ExtendedData><Data name="numero"><value>413</value></Data></ExtendedData>
<Point><coordinates>-122.0117215,37.3365265,0</coordinates></Point>
</Placemark>
<Placemark>
<name>414</name>
<ExtendedData><Data name="numero"><value>414</value></Data></ExtendedData>
<Point><coordinates>-122.0120605,37.3365265,0</coordinates></Point>
</Placemark>
<Placemark>
<name>415</name>
<ExtendedData><Data name="numero"><value>415</value></Data></ExtendedData>
<Point><coordinates>-122.0123994,37.3365265,0</coordinates></Point>
</Placemark>
<Placemark>
<name>416</name>
<ExtendedData><Data name="numero"><value>416</value></Data></ExtendedData>
<Point><coordinates>-122.0127383,37.3365265,0</coordinates></Point>
</Placemark>
<Placemark>
<name>417</name>
<ExtendedData><Data name="numero"><value>417</value></Data></ExtendedData>
<Point><coordinates>-122.0130773,37.3365265,0</coordinates></Point>
</Placemark>
<Placemark>
<name>418</name>
<ExtendedData><Data name="numero"><value>418</value></Data></ExtendedData>
<Point><coordinates>-122.0130773,37.3367959,0</coordinates></Point>
</Placemark>
<Placemark>
<name>419</name>
<ExtendedData><Data name="numero"><value>419</value></Data></ExtendedData>
<Point><coordinates>-122.0127383,37.3367959,0</coordinates></Point>
</Placemark>
<Placemark>
<name>420</name>
<ExtendedData><Data name="numero"><value>420</value></Data></ExtendedData>
<Point><coordinates>-122.0123994,37.3367959,0</coordinates></Point>
</Placemark>
<Placemark>
<name>421</name>
<ExtendedData><Data name="numero"><value>421</value></Data></ExtendedData>
<Point><coordinates>-122.0120605,37.3367959,0</coordinates></Point>
</Placemark>
<Placemark>
<name>422</name>
<ExtendedData><Data name="numero"><value>422</value></Data></ExtendedData>
<Point><coordinates>-122.0117215,37.3367959,0</coordinates></Point>
</Placemark>
<Placemark>
<name>423</name>
<ExtendedData><Data name="numero"><value>423</value></Data></ExtendedData>
<Point><coordinates>-122.0113826,37.3367959,0</coordinates></Point>
</Placemark>
<Placemark>
<name>424</name>
<ExtendedData><Data name="numero"><value>424</value></Data></ExtendedData>
<Point><coordinates>-122.0110436,37.3367959,0</coordinates></Point>
</Placemark>
<Placemark>
<name>425</name>
<ExtendedData><Data name="numero"><value>425</value></Data></ExtendedData>
<Point><coordinates>-122.0107047,37.3367959,0</coordinates></Point>
</Placemark>
<Placemark>
<name>426</name>
<ExtendedData><Data name="numero"><value>426</value></Data></ExtendedData>
<Point><coordinates>-122.0103658,37.3367959,0</coordinates></Point>
</Placemark>
<Placemark>
<name>427</name>
<ExtendedData><Data name="numero"><value>427</value></Data></ExtendedData>
<Point><coordinates>-122.0100268,37.3367959,0</coordinates></Point>
</Placemark>
<Placemark>
<name>428</name>
<ExtendedData><Data name="numero"><value>428</value></Data></ExtendedData>
<Point><coordinates>-122.0096879,37.3367959,0</coordinates></Point>
</Placemark>
<Placemark>
<name>429</name>
<ExtendedData><Data name="numero"><value>429</value></Data></ExtendedData>
<Point><coordinates>-122.0093489,37.3367959,0</coordinates></Point>
</Placemark>
<Placemark>
<name>430</name>
<ExtendedData><Data name="numero"><value>430</value></Data></ExtendedData>
<Point><coordinates>-122.0090100,37.3367959,0</coordinates></Point>
</Placemark>
<Placemark>
<name>431</name>
<ExtendedData><Data name="numero"><value>431</value></Data></ExtendedData>
<Point><coordinates>-122.0086711,37.3367959,0</coordinates></Point>
</Placemark>
<Placemark>
<name>432</name>
<ExtendedData><Data name="numero"><value>432</value></Data></ExtendedData>
<Point><coordinates>-122.0083321,37.3367959,0</coordinates></Point>
</Placemark>
<Placemark>
<name>433</name>
<ExtendedData><Data name="numero"><value>433</value></Data></ExtendedData>
<Point><coordinates>-122.0079932,37.3367959,0</coordinates></Point>
</Placemark>
<Placemark>
<name>434</name>
<ExtendedData><Data name="numero"><value>434</value></Data></ExtendedData>
<Point><coordinates>-122.0076542,37.3367959,0</coordinates></Point>
</Placemark>
<Placemark>
<name>435</name>
<ExtendedData><Data name="numero"><value>435</value></Data></ExtendedData>
<Point><coordinates>-122.0073153,37.3367959,0</coordinates></Point>
</Placemark>
<Placemark>
<name>436</name>
<ExtendedData><Data name="numero"><value>436</value></Data></ExtendedData>
<Point><coordinates>-122.0069764,37.3367959,0</coordinates></Point>
</Placemark>
<Placemark>
<name>437</name>
<ExtendedData><Data name="numero"><value>437</value></Data></ExtendedData>
<Point><coordinates>-122.0066374,37.3367959,0</coordinates></Point>
</Placemark>
<Placemark>
<name>438</name>
<ExtendedData><Data name="numero"><value>438</value></Data></ExtendedData>
<Point><coordinates>-122.0062985,37.3367959,0</coordinates></Point>
</Placemark>
<Placemark>
<name>439</name>
<ExtendedData><Data name="numero"><value>439</value></Data></ExtendedData>
<Point><coordinates>-122.0059595,37.3367959,0</coordinates></Point>
</Placemark>
<Placemark>
<name>440</name>
<ExtendedData><Data name="numero"><value>440</value></Data></ExtendedData>
<Point><coordinates>-122.0056206,37.3367959,0</coordinates></Point>
</Placemark>
<Placemark>
<name>441</name>
<ExtendedData><Data name="numero"><value>441</value></Data></ExtendedData>
<Point><coordinates>-122.0059595,37.3370654,0</coordinates></Point>
</Placemark>
<Placemark>
<name>442</name>
<ExtendedData><Data name="numero"><value>442</value></Data></ExtendedData>
<Point><coordinates>-122.0062985,37.3370654,0</coordinates></Point>
</Placemark>
<Placemark>
<name>443</name>
<ExtendedData><Data name="numero"><value>443</value></Data></ExtendedData>
<Point><coordinates>-122.0066374,37.3370654,0</coordinates></Point>
</Placemark>
<Placemark>
<name>444</name>
<ExtendedData><Data name="numero"><value>444</value></Data></ExtendedData>
<Point><coordinates>-122.0069764,37.3370654,0</coordinates></Point>
</Placemark>
<Placemark>
<name>445</name>
<ExtendedData><Data name="numero"><value>445</value></Data></ExtendedData>
<Point><coordinates>-122.0073153,37.3370654,0</coordinates></Point>
</Placemark>
<Placemark>
<name>446</name>
<ExtendedData><Data name="numero"><value>446</value></Data></ExtendedData>
<Point><coordinates>-122.0076542,37.3370654,0</coordinates></Point>
</Placemark>
<Placemark>
<name>447</name>
<ExtendedData><Data name="numero"><value>447</value></Data></ExtendedData>
<Point><coordinates>-122.0079932,37.3370654,0</coordinates></Point>
</Placemark>
<Placemark>
<name>448</name>
<ExtendedData><Data name="numero"><value>448</value></Data></ExtendedData>
<Point><coordinates>-122.0083321,37.3370654,0</coordinates></Point>
</Placemark>
<Placemark>
<name>449</name>
<ExtendedData><Data name="numero"><value>449</value></Data></ExtendedData>
<Point><coordinates>-122.0086711,37.3370654,0</coordinates></Point>
</Placemark>
<Placemark>
<name>450</name>
<ExtendedData><Data name="numero"><value>450</value></Data></ExtendedData>
<Point><coordinates>-122.0090100,37.3370654,0</coordinates></Point>
</Placemark>
<Placemark>
<name>451</name>
<ExtendedData><Data name="numero"><value>451</value></Data></ExtendedData>
<Point><coordinates>-122.0093489,37.3370654,0</coordinates></Point>
</Placemark>
<Placemark>
<name>452</name>
<ExtendedData><Data name="numero"><value>452</value></Data></ExtendedData>
<Point><coordinates>-122.0096879,37.3370654,0</coordinates></Point>
</Placemark>
<Placemark>
<name>453</name>
<ExtendedData><Data name="numero"><value>453</value></Data></ExtendedData>
<Point><coordinates>-122.0100268,37.3370654,0</coordinates></Point>
</Placemark>
<Placemark>
<name>454</name>
<ExtendedData><Data name="numero"><value>454</value></Data></ExtendedData>
<Point><coordinates>-122.0103658,37.3370654,0</coordinates></Point>
</Placemark>
<Placemark>
<name>455</name>
<ExtendedData><Data name="numero"><value>455</value></Data></ExtendedData>
<Point><coordinates>-122.0107047,37.3370654,0</coordinates></Point>
</Placemark>
<Placemark>
<name>456</name>
<ExtendedData><Data name="numero"><value>456</value></Data></ExtendedData>
<Point><coordinates>-122.0110436,37.3370654,0</coordinates></Point>
</Placemark>
<Placemark>
<name>457</name>
<ExtendedData><Data name="numero"><value>457</value></Data></ExtendedData>
<Point><coordinates>-122.0113826,37.3370654,0</coordinates></Point>
</Placemark>
<Placemark>
<name>458</name>
<ExtendedData><Data name="numero"><value>458</value></Data></ExtendedData>
<Point><coordinates>-122.0117215,37.3370654,0</coordinates></Point>
</Placemark>
<Placemark>
<name>459</name>
<ExtendedData><Data name="numero"><value>459</value></Data></ExtendedData>
<Point><coordinates>-122.0120605,37.3370654,0</coordinates></Point>
</Placemark>
<Placemark>
<name>460</name>
<ExtendedData><Data name="numero"><value>460</value></Data></ExtendedData>
<Point><coordinates>-122.0123994,37.3370654,0</coordinates></Point>
</Placemark>
<Placemark>
<name>461</name>
<ExtendedData><Data name="numero"><value>461</value></Data></ExtendedData>
<Point><coordinates>-122.0127383,37.3370654,0</coordinates></Point>
</Placemark>
<Placemark>
<name>462</name>
<ExtendedData><Data name="numero"><value>462</value></Data></ExtendedData>
<Point><coordinates>-122.0130773,37.3370654,0</coordinates></Point>
</Placemark>
<Placemark>
<name>463</name>
<ExtendedData><Data name="numero"><value>463</value></Data></ExtendedData>
<Point><coordinates>-122.0130773,37.3373349,0</coordinates></Point>
</Placemark>
<Placemark>
<name>464</name>
<ExtendedData><Data name="numero"><value>464</value></Data></ExtendedData>
<Point><coordinates>-122.0127383,37.3373349,0</coordinates></Point>
</Placemark>
<Placemark>
<name>465</name>
<ExtendedData><Data name="numero"><value>465</value></Data></ExtendedData>
<Point><coordinates>-122.0123994,37.3373349,0</coordinates></Point>
</Placemark>
<Placemark>
<name>466</name>
<ExtendedData><Data name="numero"><value>466</value></Data></ExtendedData>
<Point><coordinates>-122.0120605,37.3373349,0</coordinates></Point>
</Placemark>
<Placemark>
<name>467</name>
<ExtendedData><Data name="numero"><value>467</value></Data></ExtendedData>
<Point><coordinates>-122.0117215,37.3373349,0</coordinates></Point>
</Placemark>
<Placemark>
<name>468</name>
<ExtendedData><Data name="numero"><value>468</value></Data></ExtendedData>
<Point><coordinates>-122.0113826,37.3373349,0</coordinates></Point>
</Placemark>
<Placemark>
<name>469</name>
<ExtendedData><Data name="numero"><value>469</value></Data></ExtendedData>
<Point><coordinates>-122.0110436,37.3373349,0</coordinates></Point>
</Placemark>
<Placemark>
<name>470</name>
<ExtendedData><Data name="numero"><value>470</value></Data></ExtendedData>
<Point><coordinates>-122.0107047,37.3373349,0</coordinates></Point>
</Placemark>
<Placemark>
<name>471</name>
<ExtendedData><Data name="numero"><value>471</value></Data></ExtendedData>
<Point><coordinates>-122.0103658,37.3373349,0</coordinates></Point>
</Placemark>
<Placemark>
<name>472</name>
<ExtendedData><Data name="numero"><value>472</value></Data></ExtendedData>
<Point><coordinates>-122.0100268,37.3373349,0</coordinates></Point>
</Placemark>
<Placemark>
<name>473</name>
<ExtendedData><Data name="numero"><value>473</value></Data></ExtendedData>
<Point><coordinates>-122.0096879,37.3373349,0</coordinates></Point>
</Placemark>
<Placemark>
<name>474</name>
<ExtendedData><Data name="numero"><value>474</value></Data></ExtendedData>
<Point><coordinates>-122.0093489,37.3373349,0</coordinates></Point>
</Placemark>
<Placemark>
<name>475</name>
<ExtendedData><Data name="numero"><value>475</value></Data></ExtendedData>
<Point><coordinates>-122.0090100,37.3373349,0</coordinates></Point>
</Placemark>
<Placemark>
<name>476</name>
<ExtendedData><Data name="numero"><value>476</value></Data></ExtendedData>
<Point><coordinates>-122.0086711,37.3373349,0</coordinates></Point>
</Placemark>
<Placemark>
<name>477</name>
<ExtendedData><Data name="numero"><value>477</value></Data></ExtendedData>
<Point><coordinates>-122.0083321,37.3373349,0</coordinates></Point>
</Placemark>
<Placemark>
<name>478</name>
<ExtendedData><Data name="numero"><value>478</value></Data></ExtendedData>
<Point><coordinates>-122.0079932,37.3373349,0</coordinates></Point>
</Placemark>
<Placemark>
<name>479</name>
<ExtendedData><Data name="numero"><value>479</value></Data></ExtendedData>
<Point><coordinates>-122.0076542,37.3373349,0</coordinates></Point>
</Placemark>
<Placemark>
<name>480</name>
<ExtendedData><Data name="numero"><value>480</value></Data></ExtendedData>
<Point><coordinates>-122.0073153,37.3373349,0</coordinates></Point>
</Placemark>
<Placemark>
<name>481</name>
<ExtendedData><Data name="numero"><value>481</value></Data></ExtendedData>
<Point><coordinates>-122.0069764,37.3373349,0</coordinates></Point>
</Placemark>
<Placemark>
<name>482</name>
<ExtendedData><Data name="numero"><value>482</value></Data></ExtendedData>
<Point><coordinates>-122.0066374,37.3373349,0</coordinates></Point>
</Placemark>
<Placemark>
<name>483</name>
<ExtendedData><Data name="numero"><value>483</value></Data></ExtendedData>
<Point><coordinates>-122.0069764,37.3376044,0</coordinates></Point>
</Placemark>
<Placemark>
<name>484</name>
<ExtendedData><Data name="numero"><value>484</value></Data></ExtendedData>
<Point><coordinates>-122.0073153,37.3376044,0</coordinates></Point>
</Placemark>
<Placemark>
<name>485</name>
<ExtendedData><Data name="numero"><value>485</value></Data></ExtendedData>
<Point><coordinates>-122.0076542,37.3376044,0</coordinates></Point>
</Placemark>
<Placemark>
<name>486</name>
<ExtendedData><Data name="numero"><value>486</value></Data></ExtendedData>
<Point><coordinates>-122.0079932,37.3376044,0</coordinates></Point>
</Placemark>
<Placemark>
<name>487</name>
<ExtendedData><Data name="numero"><value>487</value></Data></ExtendedData>
<Point><coordinates>-122.0083321,37.3376044,0</coordinates></Point>
</Placemark>
<Placemark>
<name>488</name>
<ExtendedData><Data name="numero"><value>488</value></Data></ExtendedData>
<Point><coordinates>-122.0086711,37.3376044,0</coordinates></Point>
</Placemark>
<Placemark>
<name>489</name>
<ExtendedData><Data name="numero"><value>489</value></Data></ExtendedData>
<Point><coordinates>-122.0090100,37.3376044,0</coordinates></Point>
</Placemark>
<Placemark>
<name>490</name>
<ExtendedData><Data name="numero"><value>490</value></Data></ExtendedData>
<Point><coordinates>-122.0093489,37.3376044,0</coordinates></Point>
</Placemark>
<Placemark>
<name>491</name>
<ExtendedData><Data name="numero"><value>491</value></Data></ExtendedData>
<Point><coordinates>-122.0096879,37.3376044,0</coordinates></Point>
</Placemark>
<Placemark>
<name>492</name>
<ExtendedData><Data name="numero"><value>492</value></Data></ExtendedData>
<Point><coordinates>-122.0100268,37.3376044,0</coordinates></Point>
</Placemark>
<Placemark>
<name>493</name>
<ExtendedData><Data name="numero"><value>493</value></Data></ExtendedData>
<Point><coordinates>-122.0103658,37.3376044,0</coordinates></Point>
</Placemark>
<Placemark>
<name>494</name>
<ExtendedData><Data name="numero"><value>494</value></Data></ExtendedData>
<Point><coordinates>-122.0107047,37.3376044,0</coordinates></Point>
</Placemark>
<Placemark>
<name>495</name>
<ExtendedData><Data name="numero"><value>495</value></Data></ExtendedData>
<Point><coordinates>-122.0110436,37.3376044,0</coordinates></Point>
</Placemark>
<Placemark>
<name>496</name>
<ExtendedData><Data name="numero"><value>496</value></Data></ExtendedData>
<Point><coordinates>-122.0113826,37.3376044,0</coordinates></Point>
</Placemark>
<Placemark>
<name>497</name>
<ExtendedData><Data name="numero"><value>497</value></Data></ExtendedData>
<Point><coordinates>-122.0117215,37.3376044,0</coordinates></Point>
</Placemark>
<Placemark>
<name>498</name>
<ExtendedData><Data name="numero"><value>498</value></Data></ExtendedData>
<Point><coordinates>-122.0120605,37.3376044,0</coordinates></Point>
</Placemark>
<Placemark>
<name>499</name>
<ExtendedData><Data name="numero"><value>499</value></Data></ExtendedData>
<Point><coordinates>-122.0123994,37.3376044,0</coordinates></Point>
</Placemark>
<Placemark>
<name>500</name>
<ExtendedData><Data name="numero"><value>500</value></Data></ExtendedData>
<Point><coordinates>-122.0127383,37.3376044,0</coordinates></Point>
</Placemark>
<Placemark>
<name>501</name>
<ExtendedData><Data name="numero"><value>501</value></Data></ExtendedData>
<Point><coordinates>-122.0130773,37.3376044,0</coordinates></Point>
</Placemark>
<Placemark>
<name>502</name>
<ExtendedData><Data name="numero"><value>502</value></Data></ExtendedData>
<Point><coordinates>-122.0096879,37.3378739,0</coordinates></Point>
</Placemark>
<Placemark>
<name>503</name>
<ExtendedData><Data name="numero"><value>503</value></Data></ExtendedData>
<Point><coordinates>-122.0093489,37.3378739,0</coordinates></Point>
</Placemark>
<Placemark>
<name>504</name>
<ExtendedData><Data name="numero"><value>504</value></Data></ExtendedData>
<Point><coordinates>-122.0090100,37.3378739,0</coordinates></Point>
</Placemark>
<Placemark>
<name>505</name>
<ExtendedData><Data name="numero"><value>505</value></Data></ExtendedData>
<Point><coordinates>-122.0086711,37.3378739,0</coordinates></Point>
</Placemark>
<Placemark>
<name>506</name>
<ExtendedData><Data name="numero"><value>506</value></Data></ExtendedData>
<Point><coordinates>-122.0083321,37.3378739,0</coordinates></Point>
</Placemark>
<Placemark>
<name>507</name>
<ExtendedData><Data name="numero"><value>507</value></Data></ExtendedData>
<Point><coordinates>-122.0079932,37.3378739,0</coordinates></Point>
</Placemark>
<Placemark>
<name>508</name>
<ExtendedData><Data name="numero"><value>508</value></Data></ExtendedData>
<Point><coordinates>-122.0076542,37.3378739,0</coordinates></Point>
</Placemark>
</Document>
</kml>
